{"type":"FeatureCollection","_source":{"url":"https://mds.bird.co/gbfs/v2/public/denver/geofencing_zones.json","system_id":"bird-denver","operator":"Bird Rides, Inc.","gbfs_version":"2.3","feed_last_updated":1785864322,"retrieved_at":"2026-08-04T17:25:21Z","license_url":"https://www.bird.co/wp-content/uploads/2019/03/GBFS-Data-License-Agreement-2018-09-25.pdf","note":"Bird's encoding of Denver riding rules, not a City of Denver publication. Bird operates no vehicles in Denver (free_bike_status is empty); this feed is still maintained and last_updated ticks live. Verify against city ordinance before treating any polygon as authoritative."},"features":[{"properties":{"rules":[{"ride_allowed":false,"ride_through_allowed":true}]},"geometry":{"coordinates":[[[[-104.990308,39.728846],[-104.989941,39.728466],[-104.98971,39.728625],[-104.989997,39.728901],[-104.990308,39.728846]]]],"type":"MultiPolygon"},"type":"Feature"},{"properties":{"rules":[{"ride_allowed":false,"ride_through_allowed":true}]},"geometry":{"coordinates":[[[[-105.01018884797925,39.76088822026256],[-105.0095478859661,39.7613633354878],[-105.00967753451346,39.76146963528953],[-105.01032224414149,39.760989755417455],[-105.01018884797925,39.76088822026256],[-105.01018884797925,39.76088822026256]]]],"type":"MultiPolygon"},"type":"Feature"},{"properties":{"rules":[{"ride_allowed":false,"ride_through_allowed":true}]},"geometry":{"coordinates":[[[[-104.973952,39.718725],[-104.973802,39.718382],[-104.973443,39.7183],[-104.973459,39.718624],[-104.973952,39.718725]]]],"type":"MultiPolygon"},"type":"Feature"},{"properties":{"rules":[{"ride_allowed":false,"ride_through_allowed":true}]},"geometry":{"coordinates":[[[[-104.999211,39.744051],[-104.99906,39.743931],[-104.998473,39.744367],[-104.998626,39.744484],[-104.999211,39.744051]]]],"type":"MultiPolygon"},"type":"Feature"},{"properties":{"rules":[{"ride_allowed":false,"ride_through_allowed":true}]},"geometry":{"coordinates":[[[[-105.008966,39.744678],[-105.008899,39.744573],[-105.008,39.744936],[-105.008089,39.74508],[-105.008966,39.744678]]]],"type":"MultiPolygon"},"type":"Feature"},{"properties":{"rules":[{"ride_allowed":false,"ride_through_allowed":true}]},"geometry":{"coordinates":[[[[-105.000627,39.74666],[-105.000611,39.746522],[-105.000286,39.746083],[-105.000249,39.746458],[-105.000375,39.746788],[-105.000627,39.74666]]]],"type":"MultiPolygon"},"type":"Feature"},{"properties":{"rules":[{"ride_allowed":false,"ride_through_allowed":true}]},"geometry":{"coordinates":[[[[-104.986057,39.72583],[-104.985993,39.725766],[-104.985435,39.72578],[-104.986003,39.726298],[-104.986057,39.72583]]]],"type":"MultiPolygon"},"type":"Feature"},{"properties":{"rules":[{"ride_allowed":false,"ride_through_allowed":true}]},"geometry":{"coordinates":[[[[-105.002343,39.74905],[-105.002062,39.748827],[-105.002027,39.748784],[-105.00159,39.748848],[-105.002217,39.749312],[-105.002343,39.74905]]]],"type":"MultiPolygon"},"type":"Feature"},{"properties":{"rules":[{"ride_allowed":false,"ride_through_allowed":true}]},"geometry":{"coordinates":[[[[-104.973123,39.718545],[-104.973072,39.718244],[-104.971595,39.71826],[-104.973123,39.718545]]]],"type":"MultiPolygon"},"type":"Feature"},{"properties":{"rules":[{"ride_allowed":false,"ride_through_allowed":true}]},"geometry":{"coordinates":[[[[-105.001812,39.748578],[-105.001574,39.74833],[-105.001364,39.748044],[-105.001297,39.748015],[-105.000981,39.748077],[-105.001118,39.748238],[-105.001284,39.748479],[-105.001397,39.748644],[-105.001812,39.748578]]]],"type":"MultiPolygon"},"type":"Feature"},{"properties":{"rules":[{"ride_allowed":false,"ride_through_allowed":true}]},"geometry":{"coordinates":[[[[-105.000621,39.746289],[-105.000611,39.746179],[-105.000903,39.746029],[-105.000777,39.745845],[-105.000632,39.745493],[-105.000603,39.745439],[-105.000254,39.745755],[-105.000289,39.745829],[-105.000621,39.746289]]]],"type":"MultiPolygon"},"type":"Feature"},{"properties":{"rules":[{"ride_allowed":false,"ride_through_allowed":true}]},"geometry":{"coordinates":[[[[-104.999669,39.741861],[-104.999425,39.741389],[-104.998991,39.741514],[-104.999347,39.742115],[-104.999669,39.741861]]]],"type":"MultiPolygon"},"type":"Feature"},{"properties":{"rules":[{"ride_allowed":false,"ride_through_allowed":true}]},"geometry":{"coordinates":[[[[-105.001193,39.747757],[-105.000772,39.746895],[-105.000458,39.74707],[-105.00075,39.747522],[-105.000879,39.747813],[-105.001193,39.747757]]]],"type":"MultiPolygon"},"type":"Feature"},{"properties":{"rules":[{"ride_allowed":false,"ride_through_allowed":true}]},"geometry":{"coordinates":[[[[-104.991049,39.729675],[-104.990585,39.729073],[-104.990182,39.729139],[-104.990713,39.729823],[-104.991049,39.729675]]]],"type":"MultiPolygon"},"type":"Feature"},{"properties":{"rules":[{"ride_allowed":false,"ride_through_allowed":true}]},"geometry":{"coordinates":[[[[-105.000549,39.745223],[-105.000482,39.744301],[-105.000152,39.74453],[-105.000235,39.745505],[-105.000549,39.745223]]]],"type":"MultiPolygon"},"type":"Feature"},{"properties":{"rules":[{"ride_allowed":false,"ride_through_allowed":true}]},"geometry":{"coordinates":[[[[-104.987224,39.726671],[-104.986382,39.726102],[-104.986355,39.72651],[-104.987232,39.727067],[-104.987224,39.726671]]]],"type":"MultiPolygon"},"type":"Feature"},{"properties":{"rules":[{"ride_allowed":false,"ride_through_allowed":true}]},"geometry":{"coordinates":[[[[-104.99783521261955,39.74909885138459],[-104.99813273954219,39.749316580880986],[-104.99892853444287,39.74870748777539],[-104.99862383819713,39.74847597586094],[-104.99783521261955,39.74909885138459],[-104.99783521261955,39.74909885138459]]]],"type":"MultiPolygon"},"type":"Feature"},{"properties":{"rules":[{"ride_allowed":false,"ride_through_allowed":false}]},"geometry":{"coordinates":[[[[-104.995739,39.74758],[-104.995201,39.747169],[-104.994741,39.747534],[-104.995256,39.747935],[-104.995739,39.74758]]]],"type":"MultiPolygon"},"type":"Feature"},{"properties":{"rules":[{"ride_allowed":false,"ride_through_allowed":false}]},"geometry":{"coordinates":[[[[-104.991797,39.74526],[-104.992255,39.744915],[-104.991704,39.744494],[-104.991244,39.74483],[-104.991797,39.74526]]]],"type":"MultiPolygon"},"type":"Feature"},{"properties":{"rules":[{"ride_allowed":false,"ride_through_allowed":true}]},"geometry":{"coordinates":[[[[-104.978933,39.720472],[-104.977721,39.719696],[-104.977715,39.720045],[-104.978727,39.720683],[-104.978933,39.720472]]]],"type":"MultiPolygon"},"type":"Feature"},{"properties":{"rules":[{"ride_allowed":false,"ride_through_allowed":false}]},"geometry":{"coordinates":[[[[-104.989638,39.74291],[-104.989056,39.742461],[-104.988613,39.742795],[-104.989191,39.743241],[-104.989638,39.74291]]]],"type":"MultiPolygon"},"type":"Feature"},{"properties":{"rules":[{"ride_allowed":false,"ride_through_allowed":false}]},"geometry":{"coordinates":[[[[-104.99793,39.749996],[-104.998409,39.749625],[-104.997872,39.749216],[-104.997398,39.749581],[-104.99793,39.749996]]]],"type":"MultiPolygon"},"type":"Feature"},{"properties":{"rules":[{"ride_allowed":false,"ride_through_allowed":false}]},"geometry":{"coordinates":[[[[-104.997528,39.74895],[-104.996973,39.748528],[-104.9965,39.748892],[-104.997036,39.749303],[-104.997528,39.74895]]]],"type":"MultiPolygon"},"type":"Feature"},{"properties":{"rules":[{"ride_allowed":false,"ride_through_allowed":false}]},"geometry":{"coordinates":[[[[-104.990539,39.743599],[-104.989948,39.743146],[-104.989494,39.743476],[-104.990076,39.743922],[-104.990539,39.743599]]]],"type":"MultiPolygon"},"type":"Feature"},{"properties":{"rules":[{"ride_allowed":false,"ride_through_allowed":false}]},"geometry":{"coordinates":[[[[-104.996643,39.748275],[-104.996077,39.747841],[-104.995624,39.748215],[-104.996163,39.748628],[-104.996643,39.748275]]]],"type":"MultiPolygon"},"type":"Feature"},{"properties":{"rules":[{"ride_allowed":false,"ride_through_allowed":false}]},"geometry":{"coordinates":[[[[-104.988332,39.742579],[-104.988784,39.742258],[-104.988178,39.741791],[-104.987743,39.742122],[-104.988332,39.742579]]]],"type":"MultiPolygon"},"type":"Feature"},{"properties":{"rules":[{"ride_allowed":false,"ride_through_allowed":false}]},"geometry":{"coordinates":[[[[-104.993145,39.745599],[-104.992562,39.745146],[-104.992115,39.745504],[-104.992684,39.745943],[-104.993145,39.745599]]]],"type":"MultiPolygon"},"type":"Feature"},{"properties":{"rules":[{"ride_allowed":false,"ride_through_allowed":false}]},"geometry":{"coordinates":[[[[-104.994439,39.747299],[-104.994904,39.746942],[-104.994326,39.746501],[-104.993866,39.746852],[-104.994439,39.747299]]]],"type":"MultiPolygon"},"type":"Feature"},{"properties":{"rules":[{"ride_allowed":false,"ride_through_allowed":true}]},"geometry":{"coordinates":[[[[-104.98367,39.723451],[-104.982758,39.722818],[-104.982629,39.723148],[-104.983546,39.723841],[-104.98367,39.723451]]]],"type":"MultiPolygon"},"type":"Feature"},{"properties":{"rules":[{"ride_allowed":false,"ride_through_allowed":true}]},"geometry":{"coordinates":[[[[-105.00441594006692,39.75435536518586],[-105.00384832382025,39.75386303780999],[-105.00354476348325,39.754270646764525],[-105.0041206964516,39.75483969679999],[-105.00441594006692,39.75435536518586],[-105.00441594006692,39.75435536518586]]]],"type":"MultiPolygon"},"type":"Feature"},{"properties":{"rules":[{"ride_allowed":false,"ride_through_allowed":false}]},"geometry":{"coordinates":[[[[-104.999267,39.75028],[-104.998693,39.749843],[-104.998221,39.750225],[-104.998792,39.75065],[-104.999267,39.75028]]]],"type":"MultiPolygon"},"type":"Feature"},{"properties":{"rules":[{"ride_allowed":false,"ride_through_allowed":false}]},"geometry":{"coordinates":[[[[-104.993576,39.746633],[-104.994038,39.746279],[-104.993439,39.745822],[-104.99298,39.746169],[-104.993576,39.746633]]]],"type":"MultiPolygon"},"type":"Feature"},{"properties":{"rules":[{"ride_allowed":false,"ride_through_allowed":false}]},"geometry":{"coordinates":[[[[-105.000136,39.75094],[-104.999568,39.750505],[-104.999079,39.750885],[-104.99964,39.751309],[-105.000136,39.75094]]]],"type":"MultiPolygon"},"type":"Feature"},{"properties":{"rules":[{"ride_allowed":false,"ride_through_allowed":true}]},"geometry":{"coordinates":[[[[-104.999296,39.741131],[-104.998865,39.74033],[-104.998366,39.740337],[-104.998881,39.741259],[-104.999296,39.741131]]]],"type":"MultiPolygon"},"type":"Feature"},{"properties":{"rules":[{"ride_allowed":false,"ride_through_allowed":false}]},"geometry":{"coordinates":[[[[-105.001013,39.751616],[-105.000405,39.75115],[-104.999913,39.751521],[-105.000517,39.751993],[-105.001013,39.751616]]]],"type":"MultiPolygon"},"type":"Feature"},{"properties":{"rules":[{"ride_allowed":false,"ride_through_allowed":true}]},"geometry":{"coordinates":[[[[-105.002689,39.741844],[-105.00274,39.741696],[-105.003033,39.741564],[-105.002818,39.741277],[-105.002362,39.741465],[-105.001643,39.7405],[-105.001445,39.740582],[-105.002196,39.741564],[-105.001761,39.741749],[-105.001944,39.741749],[-105.002064,39.741686],[-105.002199,39.741739],[-105.002284,39.741675],[-105.002502,39.741923],[-105.002689,39.741844]]]],"type":"MultiPolygon"},"type":"Feature"},{"properties":{"rules":[{"ride_allowed":false,"ride_through_allowed":true}]},"geometry":{"coordinates":[[[[-105.008005,39.745105],[-105.007893,39.744956],[-105.007609,39.745058],[-105.007332,39.744693],[-105.0066,39.74501],[-105.006978,39.745548],[-105.008005,39.745105]]]],"type":"MultiPolygon"},"type":"Feature"},{"properties":{"rules":[{"ride_allowed":false,"ride_through_allowed":true}]},"geometry":{"coordinates":[[[[-104.998572,39.739891],[-104.997631,39.7386],[-104.997126,39.738608],[-104.998073,39.739891],[-104.998572,39.739891]]]],"type":"MultiPolygon"},"type":"Feature"},{"properties":{"rules":[{"ride_allowed":false,"ride_through_allowed":true}]},"geometry":{"coordinates":[[[[-104.997432,39.73832],[-104.996453,39.737002],[-104.995984,39.736979],[-104.995946,39.736999],[-104.996912,39.738301],[-104.997432,39.73832]]]],"type":"MultiPolygon"},"type":"Feature"},{"properties":{"rules":[{"ride_allowed":false,"ride_through_allowed":true}]},"geometry":{"coordinates":[[[[-104.98978,39.728293],[-104.989077,39.72767],[-104.988511,39.727346],[-104.98765,39.726915],[-104.987653,39.727255],[-104.988382,39.727612],[-104.988565,39.72773],[-104.989506,39.728474],[-104.98978,39.728293]]]],"type":"MultiPolygon"},"type":"Feature"},{"properties":{"rules":[{"ride_allowed":false,"ride_through_allowed":true}]},"geometry":{"coordinates":[[[[-105.004481,39.750197],[-105.003961,39.749811],[-105.003655,39.749929],[-105.003513,39.749943],[-105.003338,39.749819],[-105.00295,39.74952],[-105.002566,39.749211],[-105.002437,39.749448],[-105.002582,39.749553],[-105.002874,39.749774],[-105.003258,39.750048],[-105.003456,39.750213],[-105.003971,39.750624],[-105.004481,39.750197]]]],"type":"MultiPolygon"},"type":"Feature"},{"properties":{"rules":[{"ride_allowed":false,"ride_through_allowed":true}]},"geometry":{"coordinates":[[[[-105.00045,39.743987],[-105.000436,39.743597],[-105.000289,39.743098],[-104.999849,39.742139],[-104.999495,39.742401],[-104.999967,39.743387],[-105.000088,39.743828],[-105.000122,39.744189],[-105.000168,39.744198],[-105.00045,39.743987]]]],"type":"MultiPolygon"},"type":"Feature"},{"properties":{"rules":[{"ride_allowed":false,"ride_through_allowed":true}]},"geometry":{"coordinates":[[[[-105.004315,39.74196],[-105.004004,39.741535],[-105.005055,39.741089],[-105.004921,39.740912],[-105.004277,39.741127],[-105.004063,39.740995],[-105.003676,39.741011],[-105.003296,39.741164],[-105.003988,39.742108],[-105.004315,39.74196]]]],"type":"MultiPolygon"},"type":"Feature"},{"properties":{"rules":[{"ride_allowed":false,"ride_through_allowed":true}]},"geometry":{"coordinates":[[[[-104.985735,39.72551],[-104.983919,39.723686],[-104.983793,39.724037],[-104.985223,39.725522],[-104.985735,39.72551]]]],"type":"MultiPolygon"},"type":"Feature"},{"properties":{"rules":[{"ride_allowed":false,"ride_through_allowed":false}]},"geometry":{"coordinates":[[[[-104.996448,39.754446],[-104.995728,39.755009],[-104.996512,39.755602],[-104.997232,39.755039],[-104.996448,39.754446]]]],"type":"MultiPolygon"},"type":"Feature"},{"properties":{"rules":[{"ride_allowed":false,"ride_through_allowed":true}]},"geometry":{"coordinates":[[[[-104.977401,39.719863],[-104.977377,39.719476],[-104.976887,39.719238],[-104.976093,39.718954],[-104.974137,39.718479],[-104.974204,39.718795],[-104.975307,39.719051],[-104.976417,39.719405],[-104.977401,39.719863]]]],"type":"MultiPolygon"},"type":"Feature"},{"properties":{"rules":[{"ride_allowed":false,"ride_through_allowed":true}]},"geometry":{"coordinates":[[[[-104.982417,39.722616],[-104.981827,39.722271],[-104.980626,39.72151],[-104.979209,39.720666],[-104.978973,39.720846],[-104.979459,39.72113],[-104.980642,39.721875],[-104.982321,39.722948],[-104.982417,39.722616]]]],"type":"MultiPolygon"},"type":"Feature"},{"properties":{"rules":[{"ride_allowed":false,"ride_through_allowed":true}]},"geometry":{"coordinates":[[[[-104.999084,39.745004],[-104.998258,39.744377],[-104.997247,39.745187],[-104.998087,39.745821],[-104.999084,39.745004]]]],"type":"MultiPolygon"},"type":"Feature"},{"properties":{"rules":[{"ride_allowed":false,"ride_through_allowed":true}]},"geometry":{"coordinates":[[[[-104.996265,39.736735],[-104.995815,39.736139],[-104.995152,39.735238],[-104.994452,39.734293],[-104.994077,39.733774],[-104.993709,39.733947],[-104.994031,39.734363],[-104.994557,39.735069],[-104.99501,39.735704],[-104.995769,39.736754],[-104.996265,39.736735]]]],"type":"MultiPolygon"},"type":"Feature"},{"properties":{"rules":[{"ride_allowed":false,"ride_through_allowed":true}]},"geometry":{"coordinates":[[[[-104.9939,39.733547],[-104.993315,39.732781],[-104.992596,39.731777],[-104.9917,39.730583],[-104.991183,39.729898],[-104.990877,39.730023],[-104.990995,39.730158],[-104.991204,39.730424],[-104.991722,39.731172],[-104.991993,39.731548],[-104.992459,39.732198],[-104.993058,39.733019],[-104.993546,39.73371],[-104.9939,39.733547]]]],"type":"MultiPolygon"},"type":"Feature"},{"properties":{"rules":[{"ride_allowed":false,"ride_through_allowed":true}]},"geometry":{"coordinates":[[[[-105.01801,39.739741],[-105.01816,39.739307],[-105.018321,39.739122],[-105.018391,39.738817],[-105.018402,39.738119],[-105.018364,39.737785],[-105.018252,39.737488],[-105.017989,39.736882],[-105.017415,39.737026],[-105.017672,39.73741],[-105.017758,39.737649],[-105.017715,39.738045],[-105.017645,39.738309],[-105.017656,39.738536],[-105.017415,39.739514],[-105.017425,39.739592],[-105.01801,39.739741]]]],"type":"MultiPolygon"},"type":"Feature"},{"properties":{"rules":[{"ride_allowed":false,"ride_through_allowed":true}]},"geometry":{"coordinates":[[[[-105.007786,39.753148],[-105.007496,39.752917],[-105.007311,39.752723],[-105.007136,39.75251],[-105.006951,39.752271],[-105.006603,39.751805],[-105.006444,39.751638],[-105.006292,39.751529],[-105.005385,39.750906],[-105.004792,39.750471],[-105.004629,39.750624],[-105.004446,39.750688],[-105.00425,39.750859],[-105.00468,39.751213],[-105.004921,39.751418],[-105.0052,39.751622],[-105.005642,39.751935],[-105.005975,39.752191],[-105.006184,39.752337],[-105.006815,39.752851],[-105.007482,39.753362],[-105.007786,39.753148]]]],"type":"MultiPolygon"},"type":"Feature"},{"properties":{"rules":[{"ride_allowed":false,"ride_through_allowed":true}]},"geometry":{"coordinates":[[[[-104.981081,39.764507],[-104.978614,39.766416],[-104.979258,39.766923],[-104.981731,39.764998],[-104.981081,39.764507]]]],"type":"MultiPolygon"},"type":"Feature"},{"properties":{"rules":[{"ride_allowed":false,"ride_through_allowed":true}]},"geometry":{"coordinates":[[[[-105.009829,39.754247],[-105.008301,39.753492],[-105.008048,39.753319],[-105.007689,39.753595],[-105.007893,39.754074],[-105.007201,39.754622],[-105.008161,39.75534],[-105.009829,39.754247]]]],"type":"MultiPolygon"},"type":"Feature"},{"properties":{"rules":[{"ride_allowed":false,"ride_through_allowed":true}]},"geometry":{"coordinates":[[[[-105.0133291,39.7424638],[-105.0126542,39.7415256],[-105.0121017,39.7411296],[-105.0117208,39.7409687],[-105.0115385,39.740915],[-105.0113172,39.7408738],[-105.0110798,39.7408367],[-105.0105353,39.7409316],[-105.0111522,39.7421402],[-105.0113427,39.7424894],[-105.0117209,39.7430242],[-105.0118444,39.7431287],[-105.0123419,39.7428959],[-105.0133291,39.7424638],[-105.0133291,39.7424638]]]],"type":"MultiPolygon"},"type":"Feature"},{"properties":{"rules":[{"ride_allowed":false,"ride_through_allowed":true}]},"geometry":{"coordinates":[[[[-105.017173,39.729192],[-105.016744,39.728615],[-105.016551,39.728417],[-105.01632,39.728128],[-105.01595,39.727728],[-105.015854,39.726861],[-105.015956,39.725788],[-105.015188,39.725813],[-105.015124,39.725896],[-105.015199,39.726564],[-105.014856,39.727579],[-105.014888,39.728078],[-105.015215,39.729064],[-105.015328,39.729176],[-105.017173,39.729192]]]],"type":"MultiPolygon"},"type":"Feature"},{"properties":{"rules":[{"ride_allowed":false,"ride_through_allowed":true}]},"geometry":{"coordinates":[[[[-105.009232,39.748783],[-105.008273,39.747494],[-105.00681,39.748134],[-105.00661,39.748356],[-105.00632,39.749192],[-105.007566,39.749869],[-105.009232,39.748783],[-105.009232,39.748783]]]],"type":"MultiPolygon"},"type":"Feature"},{"properties":{"rules":[{"ride_allowed":false,"ride_through_allowed":true}]},"geometry":{"coordinates":[[[[-105.017876,39.736626],[-105.017678,39.736036],[-105.017468,39.735323],[-105.017436,39.735112],[-105.017431,39.734976],[-105.017452,39.734135],[-105.017431,39.733557],[-105.017431,39.732814],[-105.017431,39.73229],[-105.017468,39.731663],[-105.017629,39.731255],[-105.017667,39.730991],[-105.017377,39.730756],[-105.017318,39.730649],[-105.017307,39.729469],[-105.016605,39.729473],[-105.016707,39.729621],[-105.016862,39.731276],[-105.0169,39.732802],[-105.016921,39.734543],[-105.016851,39.734993],[-105.016873,39.735211],[-105.016975,39.735537],[-105.017023,39.735987],[-105.01727,39.73668],[-105.017275,39.736746],[-105.017876,39.736626]]]],"type":"MultiPolygon"},"type":"Feature"},{"properties":{"rules":[{"ride_allowed":false,"ride_through_allowed":true}]},"geometry":{"coordinates":[[[[-104.938145,39.774396],[-104.938155,39.774357],[-104.937667,39.774349],[-104.93721,39.774354],[-104.936342,39.774341],[-104.93587,39.774332],[-104.935441,39.774341],[-104.935441,39.776134],[-104.935999,39.776151],[-104.936707,39.776142],[-104.937367,39.776114],[-104.937791,39.77606],[-104.93785,39.775932],[-104.937919,39.775767],[-104.938019,39.775668],[-104.938094,39.775573],[-104.938147,39.775423],[-104.938145,39.774396]]]],"type":"MultiPolygon"},"type":"Feature"},{"properties":{"rules":[{"ride_allowed":false,"ride_through_allowed":false}]},"geometry":{"coordinates":[[[[-104.9924,39.758522],[-104.991437,39.757775],[-104.988077,39.760335],[-104.98904,39.761082],[-104.9924,39.758522]]]],"type":"MultiPolygon"},"type":"Feature"},{"properties":{"rules":[{"ride_allowed":false,"ride_through_allowed":true}]},"geometry":{"coordinates":[[[[-105.002877,39.742158],[-105.002636,39.742261],[-105.002727,39.742389],[-105.00248,39.742541],[-105.002689,39.742904],[-105.003049,39.742777],[-105.003757,39.743721],[-105.002461,39.744231],[-105.001745,39.744352],[-105.001777,39.744321],[-105.001533,39.744422],[-105.001305,39.744115],[-105.001222,39.744154],[-105.001241,39.744643],[-105.001606,39.744495],[-105.001769,39.744732],[-105.001391,39.744921],[-105.000833,39.745185],[-105.001134,39.745383],[-105.003939,39.744096],[-105.004572,39.744979],[-105.003741,39.745375],[-105.004047,39.745773],[-105.004578,39.746476],[-105.005769,39.745948],[-105.004991,39.744971],[-105.005726,39.744633],[-105.005554,39.744393],[-105.00484,39.744703],[-105.004138,39.743758],[-105.005007,39.743358],[-105.004776,39.743012],[-105.003827,39.743387],[-105.002877,39.742158]]]],"type":"MultiPolygon"},"type":"Feature"},{"properties":{"rules":[{"ride_allowed":false,"ride_through_allowed":false}]},"geometry":{"coordinates":[[[[-104.95666741629795,39.74085611261871],[-104.95486304953468,39.74085611261871],[-104.95486304953468,39.74370354230728],[-104.95666741629795,39.74370354230728],[-104.95666741629795,39.74085611261871],[-104.95666741629795,39.74085611261871]]]],"type":"MultiPolygon"},"type":"Feature"},{"properties":{"rules":[{"ride_allowed":false,"ride_through_allowed":true}]},"geometry":{"coordinates":[[[[-104.985137,39.767496],[-104.98629,39.767142],[-104.987621,39.766713],[-104.988227,39.76656],[-104.989096,39.766395],[-104.991043,39.766024],[-104.991826,39.765814],[-104.992588,39.765616],[-104.992889,39.765381],[-104.993168,39.765187],[-104.993227,39.765068],[-104.993377,39.765002],[-104.993768,39.764861],[-104.994589,39.764177],[-104.994557,39.76334],[-104.994364,39.763431],[-104.993178,39.764379],[-104.992594,39.764812],[-104.991821,39.765154],[-104.990045,39.765649],[-104.98768,39.766251],[-104.984729,39.767129],[-104.985137,39.767496]]]],"type":"MultiPolygon"},"type":"Feature"},{"properties":{"rules":[{"ride_allowed":false,"ride_through_allowed":true}]},"geometry":{"coordinates":[[[[-104.9963035,39.7309608],[-104.9958234,39.7309587],[-104.9958207,39.7306266],[-104.99420630564418,39.73063791315111],[-104.99421665782917,39.73098330828624],[-104.99412728117986,39.73097589750407],[-104.99413055777205,39.732087151775545],[-104.9942302,39.732087],[-104.99423285,39.73245525],[-104.9942355,39.7328235],[-104.9942972,39.7335557],[-104.995279,39.7335516],[-104.9963223,39.7335495],[-104.9963035,39.7309608],[-104.9963035,39.7309608]]]],"type":"MultiPolygon"},"type":"Feature"},{"properties":{"rules":[{"ride_allowed":false,"ride_through_allowed":true}]},"geometry":{"coordinates":[[[[-104.977643,39.779107],[-104.978372,39.779086],[-104.978501,39.778274],[-104.978292,39.777655],[-104.97819,39.777058],[-104.978206,39.776485],[-104.978523,39.77592],[-104.978008,39.775252],[-104.977477,39.775742],[-104.976876,39.776233],[-104.975958,39.77688],[-104.975851,39.776955],[-104.976017,39.777124],[-104.976189,39.777491],[-104.976211,39.7778],[-104.976017,39.778373],[-104.976511,39.778521],[-104.97767,39.77874],[-104.977643,39.779107]]]],"type":"MultiPolygon"},"type":"Feature"},{"properties":{"rules":[{"ride_allowed":false,"ride_through_allowed":true}]},"geometry":{"coordinates":[[[[-104.978946,39.775536],[-104.979209,39.774741],[-104.979429,39.774539],[-104.979558,39.774279],[-104.979719,39.774184],[-104.980019,39.773825],[-104.980137,39.773619],[-104.980926,39.772539],[-104.981017,39.772522],[-104.981613,39.77178],[-104.981752,39.771628],[-104.982149,39.771042],[-104.982267,39.770968],[-104.982433,39.770733],[-104.982616,39.770461],[-104.982734,39.770407],[-104.983892,39.768902],[-104.98385,39.768808],[-104.984112,39.768531],[-104.984134,39.768391],[-104.984863,39.767649],[-104.984365,39.767278],[-104.984112,39.767447],[-104.983785,39.767954],[-104.983383,39.768527],[-104.982777,39.769249],[-104.982106,39.770077],[-104.981473,39.770886],[-104.98069,39.771863],[-104.980035,39.772782],[-104.979681,39.773265],[-104.979188,39.773768],[-104.978791,39.774283],[-104.978276,39.774901],[-104.978946,39.775536]]]],"type":"MultiPolygon"},"type":"Feature"},{"properties":{"rules":[{"ride_allowed":false,"ride_through_allowed":true}]},"geometry":{"coordinates":[[[[-105.000517,39.751993],[-105.001013,39.751616],[-104.988178,39.741791],[-104.987743,39.742122],[-105.000517,39.751993],[-105.000517,39.751993]]]],"type":"MultiPolygon"},"type":"Feature"},{"properties":{"rules":[{"ride_allowed":false,"ride_through_allowed":true}]},"geometry":{"coordinates":[[[[-104.995319,39.763661],[-104.996381,39.763051],[-104.99711,39.76282],[-104.998264,39.762585],[-104.999009,39.763022],[-105.000275,39.762548],[-105.001279,39.763043],[-105.001509,39.763035],[-105.00182,39.762618],[-105.002137,39.762177],[-105.002421,39.761538],[-105.002228,39.760874],[-105.001745,39.760214],[-105.001354,39.760033],[-105.000941,39.760239],[-105.000479,39.760371],[-105.000007,39.760659],[-104.99968,39.760577],[-104.999181,39.761501],[-104.998993,39.761604],[-104.997818,39.761884],[-104.996606,39.762136],[-104.99586,39.762462],[-104.99527,39.762676],[-104.995319,39.763661]]]],"type":"MultiPolygon"},"type":"Feature"},{"properties":{"rules":[{"ride_allowed":false,"ride_through_allowed":true}]},"geometry":{"coordinates":[[[[-105.010232,39.753857],[-105.011106,39.753236],[-105.012512,39.752201],[-105.013815,39.75122],[-105.014486,39.750885],[-105.014904,39.750613],[-105.015237,39.750366],[-105.01543,39.750358],[-105.015591,39.750283],[-105.015757,39.750094],[-105.015827,39.749908],[-105.016009,39.749772],[-105.016277,39.749764],[-105.016454,39.749797],[-105.01653,39.74905],[-105.016589,39.748625],[-105.016884,39.748493],[-105.01705,39.748279],[-105.017484,39.748324],[-105.017667,39.747615],[-105.017763,39.747083],[-105.017801,39.746732],[-105.017581,39.746419],[-105.016889,39.746212],[-105.016589,39.746039],[-105.016224,39.744554],[-105.016186,39.744501],[-105.015478,39.744311],[-105.015435,39.744261],[-105.015317,39.744538],[-105.015258,39.74528],[-105.015247,39.745804],[-105.015119,39.746373],[-105.015188,39.746868],[-105.01507,39.747318],[-105.014952,39.748003],[-105.014915,39.748671],[-105.014765,39.749471],[-105.014464,39.749854],[-105.013729,39.750102],[-105.012941,39.750688],[-105.011814,39.751471],[-105.011267,39.7519],[-105.009542,39.752061],[-105.00844,39.752943],[-105.008875,39.753255],[-105.009537,39.753556],[-105.010232,39.753857]]]],"type":"MultiPolygon"},"type":"Feature"},{"properties":{"rules":[{"ride_allowed":false,"ride_through_allowed":true}]},"geometry":{"coordinates":[[[[-105.023457,39.743564],[-105.023471,39.742644],[-105.023464,39.741885],[-105.023455,39.741752],[-105.023407,39.741568],[-105.023395,39.741537],[-105.023376,39.74151],[-105.023355,39.741488],[-105.023334,39.741466],[-105.023314,39.741447],[-105.023231,39.741369],[-105.023157,39.741304],[-105.023079,39.741248],[-105.022918,39.741165],[-105.022751,39.741117],[-105.022547,39.741076],[-105.021922,39.741073],[-105.021699,39.741028],[-105.021524,39.740958],[-105.021319,39.740841],[-105.020587,39.740844],[-105.020585,39.741305],[-105.019665,39.741305],[-105.019667,39.740847],[-105.01826,39.740837],[-105.018121,39.741203],[-105.018019,39.741405],[-105.017919,39.74155],[-105.017754,39.741785],[-105.017463,39.742141],[-105.01729,39.742501],[-105.017265,39.742713],[-105.017297,39.742884],[-105.017386,39.74324],[-105.017558,39.743684],[-105.017752,39.743918],[-105.01806,39.744222],[-105.018318,39.744561],[-105.018433,39.744716],[-105.018558,39.744876],[-105.019111,39.745555],[-105.019295,39.745558],[-105.019294,39.74563],[-105.019296,39.746274],[-105.019597,39.746274],[-105.019951,39.746274],[-105.02031,39.746273],[-105.020312,39.74578],[-105.020651,39.74578],[-105.020887,39.74578],[-105.020881,39.747434],[-105.022598,39.747429],[-105.022694,39.747425],[-105.022867,39.747421],[-105.022972,39.74741],[-105.023054,39.747388],[-105.023132,39.747354],[-105.023222,39.7473],[-105.023315,39.747235],[-105.023362,39.747188],[-105.023407,39.747122],[-105.023419,39.747038],[-105.023438,39.745715],[-105.023446,39.744731],[-105.023447,39.744388],[-105.023388,39.744384],[-105.022416,39.744262],[-105.022421,39.743662],[-105.023457,39.743564],[-105.023457,39.743564]]]],"type":"MultiPolygon"},"type":"Feature"},{"properties":{"rules":[{"ride_allowed":false,"ride_through_allowed":true}]},"geometry":{"coordinates":[[[[-104.969816,39.707162],[-104.972059,39.707154],[-104.972852,39.706469],[-104.973089,39.705008],[-104.973046,39.704529],[-104.972413,39.704025],[-104.972337,39.703522],[-104.972906,39.703514],[-104.972917,39.697611],[-104.972831,39.695977],[-104.972681,39.694739],[-104.972681,39.69355],[-104.967842,39.69355],[-104.96781,39.694507],[-104.968947,39.694565],[-104.969172,39.694879],[-104.969162,39.696175],[-104.969623,39.696406],[-104.972295,39.698247],[-104.971544,39.698767],[-104.969119,39.697001],[-104.969205,39.70003],[-104.969612,39.700113],[-104.969344,39.701582],[-104.969505,39.702119],[-104.970149,39.702647],[-104.97016,39.702853],[-104.969044,39.704124],[-104.968904,39.705825],[-104.969065,39.706873],[-104.969816,39.707162]]]],"type":"MultiPolygon"},"type":"Feature"},{"properties":{"rules":[{"ride_allowed":false,"ride_through_allowed":false}]},"geometry":{"coordinates":[[[[-104.959431,39.754277],[-104.959434,39.750946],[-104.955046,39.751365],[-104.949397,39.751428],[-104.949365,39.753114],[-104.949045,39.753286],[-104.948678,39.753286],[-104.947974,39.75355],[-104.947488,39.753546],[-104.947498,39.753054],[-104.947818,39.753043],[-104.948349,39.752639],[-104.948582,39.752628],[-104.948582,39.752266],[-104.947969,39.752258],[-104.947983,39.751928],[-104.947136,39.75159],[-104.947141,39.751403],[-104.94109,39.751299],[-104.941089,39.754233],[-104.959431,39.754277]]]],"type":"MultiPolygon"},"type":"Feature"},{"properties":{"rules":[{"ride_allowed":false,"ride_through_allowed":true}]},"geometry":{"coordinates":[[[[-105.009628488225,39.7567232191065],[-105.004357617905,39.7607137126914],[-105.004121376257,39.7605443994593],[-104.99708326016,39.7555000340475],[-104.99865825321599,39.75431515109905],[-104.99950157421397,39.75368369337026],[-104.99921781641011,39.7534733086659],[-105.00152508233066,39.751759545112535],[-105.00178169561033,39.751956206890426],[-105.003383232384,39.7507605022537],[-105.005438111529,39.7524036614889],[-105.004958956445,39.7531442316878],[-105.006542704257,39.7543266796154],[-105.009628488225,39.7567232191065],[-105.009628488225,39.7567232191065],[-105.009628488225,39.7567232191065],[-105.009628488225,39.7567232191065]],[[-105.0026276181485,39.75211762743449],[-105.00264444504145,39.75211699188797],[-105.00266110988133,39.75211509136914],[-105.00267745217567,39.75211194418114],[-105.00269331453849,39.75210758063325],[-105.00270854420579,39.75210204274907],[-105.00272299450698,39.752095383861715],[-105.00273652627732,39.75208766810024],[-105.00274900919821,39.75207896977198],[-105.0027603230522,39.75206937264694],[-105.00277035888077,39.752058969151044],[-105.00277902003367,39.752047859475994],[-105.00278622309973,39.75203615061432],[-105.00279189871006,39.75202395532907],[-105.00279599220613,39.75201139106771],[-105.00279846416619,39.751998578831135],[-105.00279929078476,39.75198564200827],[-105.00279846410201,39.75197270518784],[-105.00279599208027,39.751959892958446],[-105.00279189852732,39.75194732870877],[-105.00278622286714,39.75193513343925],[-105.00277901976018,39.75192342459675],[-105.00277035857687,39.75191231494355],[-105.0027603227296,39.75190191147137],[-105.0027490088693,39.751892314371005],[-105.00273652595473,39.75188361606741],[-105.0027229942031,39.75187590032966],[-105.0027085439323,39.751869241464156],[-105.0026933143059,39.75186370359914],[-105.00267745199295,39.75185934006698],[-105.00266110975545,39.751856192890656],[-105.00264444497729,39.751854292379015],[-105.0026276181485,39.75185365683493],[-105.00261079131971,39.751854292379015],[-105.00259412654155,39.751856192890656],[-105.00257778430405,39.75185934006698],[-105.0025619219911,39.75186370359914],[-105.0025466923647,39.751869241464156],[-105.0025322420939,39.75187590032966],[-105.00251871034227,39.75188361606741],[-105.0025062274277,39.751892314371005],[-105.0024949135674,39.75190191147137],[-105.00248487772014,39.75191231494355],[-105.0024762165368,39.75192342459675],[-105.00246901342986,39.75193513343925],[-105.00246333776968,39.75194732870877],[-105.00245924421674,39.751959892958446],[-105.00245677219499,39.75197270518784],[-105.00245594551224,39.75198564200827],[-105.00245677213081,39.751998578831135],[-105.00245924409087,39.75201139106771],[-105.00246333758695,39.75202395532907],[-105.00246901319727,39.75203615061432],[-105.00247621626332,39.752047859475994],[-105.00248487741622,39.752058969151044],[-105.00249491324479,39.75206937264694],[-105.00250622709879,39.75207896977198],[-105.00251871001967,39.75208766810024],[-105.00253224179002,39.752095383861715],[-105.00254669209122,39.75210204274907],[-105.00256192175851,39.75210758063325],[-105.00257778412131,39.75211194418114],[-105.00259412641567,39.75211509136914],[-105.00261079125555,39.75211699188797],[-105.0026276181485,39.75211762743449],[-105.0026276181485,39.75211762743449],[-105.0026276181485,39.75211762743449],[-105.0026276181485,39.75211762743449]],[[-105.0035398988531,39.75277998233371],[-105.00355657323894,39.752779352553425],[-105.0035730870404,39.7527774692777],[-105.00358928121969,39.752774350643634],[-105.00360499981724,39.75277002668552],[-105.00362009145361,39.752764539045685],[-105.00363441078753,39.75275794057336],[-105.00364781991556,39.75275029481575],[-105.0036601897002,39.75274167540602],[-105.00367140101359,39.75273216535413],[-105.00368134588471,39.752721856247454],[-105.0036899285393,39.75271084736864],[-105.00369706632213,39.75269924473953],[-105.00370269049304,39.752687160100045],[-105.00370674688887,39.7526747098321],[-105.00370919644512,39.75266201383873],[-105.00371001557211,39.75264919438943],[-105.0037091963821,39.752636374942504],[-105.00370674676526,39.75262367895621],[-105.00370269031359,39.75261122869974],[-105.00369706609375,39.75259914407569],[-105.00368992827073,39.752587541465395],[-105.0036813455863,39.752576532608046],[-105.0036714006968,39.75256622352466],[-105.00366018937721,39.75255671349699],[-105.00364781959878,39.75254809411149],[-105.00363441048913,39.752540448377175],[-105.00362009118504,39.752533849926316],[-105.00360499958884,39.75252836230529],[-105.00358928104025,39.75252403836262],[-105.00357308691679,39.75252091974002],[-105.00355657317593,39.75251903647137],[-105.0035398988531,39.75251840669346],[-105.00352322453028,39.75251903647137],[-105.00350671078942,39.75252091974002],[-105.00349051666596,39.75252403836262],[-105.00347479811737,39.75252836230529],[-105.00345970652117,39.752533849926316],[-105.00344538721708,39.752540448377175],[-105.00343197810743,39.75254809411149],[-105.00341960832898,39.75255671349699],[-105.00340839700941,39.75256622352466],[-105.00339845211991,39.752576532608046],[-105.00338986943548,39.752587541465395],[-105.00338273161246,39.75259914407569],[-105.00337710739262,39.75261122869974],[-105.00337305094095,39.75262367895621],[-105.00337060132411,39.752636374942504],[-105.0033697821341,39.75264919438943],[-105.0033706012611,39.75266201383873],[-105.00337305081734,39.7526747098321],[-105.00337710721317,39.752687160100045],[-105.00338273138408,39.75269924473953],[-105.00338986916691,39.75271084736864],[-105.0033984518215,39.752721856247454],[-105.00340839669262,39.75273216535413],[-105.00341960800601,39.75274167540602],[-105.00343197779065,39.75275029481575],[-105.00344538691868,39.75275794057336],[-105.0034597062526,39.752764539045685],[-105.00347479788897,39.75277002668552],[-105.00349051648652,39.752774350643634],[-105.00350671066582,39.7527774692777],[-105.00352322446727,39.752779352553425],[-105.0035398988531,39.75277998233371],[-105.0035398988531,39.75277998233371],[-105.0035398988531,39.75277998233371],[-105.0035398988531,39.75277998233371]],[[-105.00344125304075,39.753868335354994],[-105.00345801680054,39.75386770220911],[-105.00347461911525,39.753865808869],[-105.00349090009466,39.7538626735687],[-105.00350670294314,39.75385832650301],[-105.00352187546999,39.75385280953678],[-105.00353627155485,39.753846175801684],[-105.00354975255512,39.753838489184545],[-105.00356218864117,39.753829823712],[-105.00357346004657,39.75382026283766],[-105.0035834582216,39.75380989863831],[-105.00359208687868,39.7537988309272],[-105.00359926291954,39.75378716629276],[-105.00360491723555,39.75377501707205],[-105.0036089953733,39.75376250026895],[-105.00361145805887,39.75374973642729],[-105.00361228157617,39.753736848469906],[-105.0036114579952,39.75372396051494],[-105.00360899524836,39.75371119668041],[-105.00360491705418,39.753698679888906],[-105.00359926268868,39.75368653068381],[-105.00359208660724,39.75367486606839],[-105.00358345791999,39.753663798378966],[-105.00357345972635,39.75365343420317],[-105.00356218831467,39.75364387335331],[-105.00354975223493,39.75363520790525],[-105.00353627125322,39.75362752131164],[-105.00352187519853,39.75362088759825],[-105.00350670271229,39.75361537065104],[-105.00349089991326,39.75361102360095],[-105.00347461899034,39.753607888312246],[-105.00345801673686,39.75360599497928],[-105.00344125304075,39.75360536183581],[-105.00342448934462,39.75360599497928],[-105.00340788709116,39.753607888312246],[-105.00339160616824,39.75361102360095],[-105.0033758033692,39.75361537065104],[-105.00336063088297,39.75362088759825],[-105.00334623482827,39.75362752131164],[-105.00333275384656,39.75363520790525],[-105.0033203177668,39.75364387335331],[-105.00330904635514,39.75365343420317],[-105.00329904816151,39.753663798378966],[-105.00329041947425,39.75367486606839],[-105.00328324339281,39.75368653068381],[-105.00327758902732,39.753698679888906],[-105.00327351083314,39.75371119668041],[-105.00327104808629,39.75372396051494],[-105.00327022450533,39.753736848469906],[-105.00327104802261,39.75374973642729],[-105.0032735107082,39.75376250026895],[-105.00327758884595,39.75377501707205],[-105.00328324316196,39.75378716629276],[-105.00329041920281,39.7537988309272],[-105.0032990478599,39.75380989863831],[-105.00330904603493,39.75382026283766],[-105.00332031744033,39.753829823712],[-105.00333275352638,39.753838489184545],[-105.00334623452666,39.753846175801684],[-105.00336063061151,39.75385280953678],[-105.00337580313834,39.75385832650301],[-105.00339160598683,39.7538626735687],[-105.00340788696622,39.753865808869],[-105.00342448928093,39.75386770220911],[-105.00344125304075,39.753868335354994],[-105.00344125304075,39.753868335354994],[-105.00344125304075,39.753868335354994],[-105.00344125304075,39.753868335354994]],[[-105.00245342962037,39.753646580211935],[-105.00247020952588,39.75364594645419],[-105.0024868278308,39.753644051284454],[-105.0025031244909,39.75364091295434],[-105.00251894255962,39.75363656168783],[-105.00253412969955,39.75363103939026],[-105.00254853964974,39.75362439924462],[-105.00256203363399,39.75361670519947],[-105.00257448169758,39.753608031353],[-105.00258576395879,39.753598461239456],[-105.00259577176337,39.75358808702462],[-105.00260440873095,39.75357700861817],[-105.00261159168323,39.75356533271156],[-105.00261725144507,39.753553171750404],[-105.00262133351055,39.75354064285164],[-105.00262379856798,39.753527866675576],[-105.00262462287841,39.75351496626388],[-105.00262379850419,39.75350206585459],[-105.00262133338536,39.75348928968568],[-105.00261725126333,39.75347676079854],[-105.00261159145194,39.75346459985302],[-105.00260440845896,39.753452923965455],[-105.00259577146116,39.75344184558076],[-105.00258576363798,39.753431471389504],[-105.00257448137049,39.753421901300484],[-105.00256203331317,39.75341322747855],[-105.00254853934753,39.753405533456984],[-105.00253412942759,39.75339889333309],[-105.00251894232831,39.75339337105457],[-105.00250312430917,39.753389019803706],[-105.00248682770562,39.753385881485194],[-105.00247020946206,39.75338398632261],[-105.00245342962037,39.7533833525673],[-105.00243664977869,39.75338398632261],[-105.00242003153512,39.753385881485194],[-105.00240373493159,39.753389019803706],[-105.00238791691243,39.75339337105457],[-105.00237272981315,39.75339889333309],[-105.0023583198932,39.753405533456984],[-105.00234482592757,39.75341322747855],[-105.00233237787025,39.753421901300484],[-105.00232109560277,39.753431471389504],[-105.00231108777957,39.75344184558076],[-105.00230245078177,39.753452923965455],[-105.0022952677888,39.75346459985302],[-105.0022896079774,39.75347676079854],[-105.00228552585537,39.75348928968568],[-105.00228306073656,39.75350206585459],[-105.00228223636232,39.75351496626388],[-105.00228306067275,39.753527866675576],[-105.00228552573019,39.75354064285164],[-105.00228960779569,39.753553171750404],[-105.0022952675575,39.75356533271156],[-105.0023024505098,39.75357700861817],[-105.00231108747738,39.75358808702462],[-105.00232109528194,39.753598461239456],[-105.00233237754315,39.753608031353],[-105.00234482560677,39.75361670519947],[-105.002358319591,39.75362439924462],[-105.00237272954118,39.75363103939026],[-105.00238791668113,39.75363656168783],[-105.00240373474983,39.75364091295434],[-105.00242003140995,39.753644051284454],[-105.00243664971487,39.75364594645419],[-105.00245342962037,39.753646580211935],[-105.00245342962037,39.753646580211935],[-105.00245342962037,39.753646580211935],[-105.00245342962037,39.753646580211935]],[[-105.00143889092514,39.75418496329667],[-105.00145574833789,39.754184326616546],[-105.0014724434036,39.754182422707785],[-105.00148881533879,39.754179269906174],[-105.00150470647193,39.75417489857508],[-105.00151996376204,39.75416935081305],[-105.00153444027244,39.75416268004833],[-105.001547996586,39.75415495052435],[-105.00156050214774,39.754146236681],[-105.00157183652217,39.754136622437706],[-105.00158189055318,39.754126200385244],[-105.00159056741519,39.75411507089402],[-105.00159778354576,39.754103341147434],[-105.00160346945015,39.754091124109635],[-105.00160757037074,39.75407853743759],[-105.00161004681425,39.75406570234803],[-105.00161087493204,39.754052742449964],[-105.00161004674983,39.75403978255433],[-105.00160757024439,39.75402694747199],[-105.00160346926673,39.75401436081168],[-105.0015977833123,39.75400214378966],[-105.00159056714071,39.75399041406231],[-105.00158189024818,39.75397928459302],[-105.00157183619838,39.75396886256436],[-105.00156050181761,39.753959248345836],[-105.0015479962622,39.75395053452723],[-105.00153443996743,39.753942805027066],[-105.00151996348751,39.75393613428429],[-105.00150470623848,39.75393058654148],[-105.00148881515537,39.75392621522617],[-105.00147244327725,39.75392306243629],[-105.00145574827349,39.75392115853475],[-105.00143889092514,39.75392052185706],[-105.00142203357682,39.75392115853475],[-105.00140533857304,39.75392306243629],[-105.00138896669492,39.75392621522617],[-105.0013730756118,39.75393058654148],[-105.00135781836276,39.75393613428429],[-105.00134334188284,39.753942805027066],[-105.00132978558807,39.75395053452723],[-105.00131728003268,39.753959248345836],[-105.00130594565191,39.75396886256436],[-105.0012958916021,39.75397928459302],[-105.00128721470958,39.75399041406231],[-105.00127999853797,39.75400214378966],[-105.00127431258355,39.75401436081168],[-105.00127021160588,39.75402694747199],[-105.00126773510046,39.75403978255433],[-105.00126690691825,39.754052742449964],[-105.00126773503605,39.75406570234803],[-105.00127021147954,39.75407853743759],[-105.00127431240013,39.754091124109635],[-105.00127999830454,39.754103341147434],[-105.00128721443508,39.75411507089402],[-105.00129589129709,39.754126200385244],[-105.0013059453281,39.754136622437706],[-105.00131727970255,39.754146236681],[-105.00132978526429,39.75415495052435],[-105.00134334157784,39.75416268004833],[-105.00135781808825,39.75416935081305],[-105.00137307537834,39.75417489857508],[-105.00138896651151,39.754179269906174],[-105.00140533844669,39.754182422707785],[-105.0014220335124,39.754184326616546],[-105.00143889092514,39.75418496329667],[-105.00143889092514,39.75418496329667],[-105.00143889092514,39.75418496329667],[-105.00143889092514,39.75418496329667]],[[-105.00118273013733,39.75437440732023],[-105.00119943106071,39.754373776552235],[-105.00121597114418,39.75437189032289],[-105.00123219109676,39.75436876679776],[-105.0012479347107,39.75436443605823],[-105.00126305036565,39.754358939811944],[-105.001277392489,39.754352330991004],[-105.00129082295786,39.75434467324228],[-105.00130321242918,39.75433604031443],[-105.0013144415855,39.75432651534761],[-105.00132440228401,39.7543161900728],[-105.00133299859797,39.754305163928386],[-105.00134014774066,39.75429354310247],[-105.00134578086247,39.754281439510244],[-105.00134984371405,39.75426896971612],[-105.00135229716876,39.75425625381122],[-105.00135311759935,39.75424341425674],[-105.00135229710554,39.75423057470467],[-105.00134984359006,39.75421785880685],[-105.00134578068243,39.75420538902424],[-105.00134014751153,39.754193285447506],[-105.00133299832856,39.75418166464046],[-105.00132440198465,39.754170638517586],[-105.00131444126771,39.75416031326614],[-105.00130321210514,39.75415078832362],[-105.00129082264006,39.75414215542007],[-105.00127739218962,39.754134497694714],[-105.00126305009621,39.754127888895304],[-105.00124793448157,39.75412239266789],[-105.00123219091675,39.75411806194385],[-105.00121597102017,39.75411493843023],[-105.00119943099749,39.754113052207984],[-105.00118273013733,39.75411242144238],[-105.00116602927716,39.754113052207984],[-105.0011494892545,39.75411493843023],[-105.00113326935792,39.75411806194385],[-105.00111752579309,39.75412239266789],[-105.00110241017845,39.754127888895304],[-105.00108806808504,39.754134497694714],[-105.00107463763462,39.75414215542007],[-105.00106224816952,39.75415078832362],[-105.00105101900697,39.75416031326614],[-105.00104105829001,39.754170638517586],[-105.00103246194611,39.75418166464046],[-105.00102531276313,39.754193285447506],[-105.00101967959222,39.75420538902424],[-105.00101561668461,39.75421785880685],[-105.0010131631691,39.75423057470467],[-105.00101234267531,39.75424341425674],[-105.0010131631059,39.75425625381122],[-105.0010156165606,39.75426896971612],[-105.0010196794122,39.754281439510244],[-105.00102531253401,39.75429354310247],[-105.00103246167667,39.754305163928386],[-105.00104105799066,39.7543161900728],[-105.00105101868917,39.75432651534761],[-105.00106224784548,39.75433604031443],[-105.0010746373168,39.75434467324228],[-105.00108806778566,39.754352330991004],[-105.00110240990902,39.754358939811944],[-105.00111752556397,39.75436443605823],[-105.00113326917788,39.75436876679776],[-105.00114948913048,39.75437189032289],[-105.00116602921393,39.754373776552235],[-105.00118273013733,39.75437440732023],[-105.00118273013733,39.75437440732023],[-105.00118273013733,39.75437440732023],[-105.00118273013733,39.75437440732023]],[[-104.99886168634458,39.75568781143378],[-104.99887835439483,39.755687181919356],[-104.99889486192176,39.755685299438674],[-104.99891104994796,39.755682182121156],[-104.99892676257308,39.75567785998844],[-104.99894184847528,39.755672374665245],[-104.99895616236847,39.75566577897851],[-104.9989695664016,39.755658136448616],[-104.99898193148626,39.755649520677615],[-104.99899313853982,39.755640014640484],[-104.9990030796323,39.75562970988586],[-104.99901165902587,39.75561870565452],[-104.99901879409666,39.75560710792354],[-104.99902441613061,39.755595028385656],[-104.9990284709852,39.75558258337368],[-104.99903091961073,39.75556989274001],[-104.99903173842651,39.75555707870252],[-104.99903091954778,39.755544264667414],[-104.99902847086169,39.7555315740408],[-104.99902441595128,39.7555191290403],[-104.99901879386843,39.755507049517846],[-104.9990116587575,39.755495451805665],[-104.99900307933412,39.75548444759578],[-104.99899313822326,39.75547414286443],[-104.99898193116348,39.75546463685149],[-104.99896956608504,39.755456021104706],[-104.99895616207026,39.75544837859808],[-104.9989418482069,39.7554417829328],[-104.99892676234487,39.75543629762841],[-104.99891104976864,39.755431975511115],[-104.99889486179823,39.75542885820507],[-104.99887835433186,39.755426975731446],[-104.99886168634458,39.75542634621941],[-104.99884501835729,39.755426975731446],[-104.9988285108909,39.75542885820507],[-104.99881232292053,39.755431975511115],[-104.99879661034429,39.75543629762841],[-104.99878152448224,39.7554417829328],[-104.99876721061888,39.75544837859808],[-104.99875380660413,39.755456021104706],[-104.99874144152565,39.75546463685149],[-104.99873023446591,39.75547414286443],[-104.99872029335503,39.75548444759578],[-104.99871171393166,39.755495451805665],[-104.99870457882074,39.755507049517846],[-104.99869895673787,39.7555191290403],[-104.99869490182748,39.7555315740408],[-104.99869245314137,39.755544264667414],[-104.99869163426264,39.75555707870252],[-104.9986924530784,39.75556989274001],[-104.99869490170394,39.75558258337368],[-104.99869895655854,39.755595028385656],[-104.9987045785925,39.75560710792354],[-104.99871171366327,39.75561870565452],[-104.99872029305683,39.75562970988586],[-104.99873023414933,39.755640014640484],[-104.9987414412029,39.755649520677615],[-104.99875380628755,39.755658136448616],[-104.9987672103207,39.75566577897851],[-104.99878152421387,39.755672374665245],[-104.99879661011607,39.75567785998844],[-104.9988123227412,39.755682182121156],[-104.9988285107674,39.755685299438674],[-104.99884501829432,39.755687181919356],[-104.99886168634458,39.75568781143378],[-104.99886168634458,39.75568781143378],[-104.99886168634458,39.75568781143378],[-104.99886168634458,39.75568781143378]],[[-105.00042115370927,39.755416378710116],[-105.00043785704482,39.75541574786056],[-105.0004543995172,39.75541386138733],[-105.00047062181248,39.75541073745831],[-105.00048636770029,39.755406406158805],[-105.00050148553844,39.75540090920184],[-105.00051582973325,39.75539429952635],[-105.0005292621419,39.755386640787464],[-105.00054165340266,39.75537800674334],[-105.00055288418085,39.7553684805449],[-105.000562846318,39.75535815393501],[-105.00057144387357,39.75534712636488],[-105.00057859404879,39.75533550403636],[-105.00058422798419,39.755323398879106],[-105.00058829142259,39.75531092747261],[-105.00059074523166,39.7552982099235],[-105.00059156578075,39.75528536870883],[-105.00059074516841,39.75527252749656],[-105.00058829129854,39.75525980995455],[-105.00058422780411,39.75524733855956],[-105.0005785938196,39.75523523341779],[-105.00057144360406,39.75522361110816],[-105.00056284601855,39.75521258355957],[-105.00055288386294,39.75520225697305],[-105.00054165307854,39.755192730798925],[-105.00052926182401,39.75518409677911],[-105.0005158294338,39.755176438063586],[-105.00050148526893,39.75516982840965],[-105.0004863674711,39.755164331471555],[-105.0004706216324,39.75516000018754],[-105.00045439939315,39.75515687627004],[-105.00043785698158,39.755154989803906],[-105.00042115370927,39.75515435895674],[-105.00040445043696,39.755154989803906],[-105.00038790802539,39.75515687627004],[-105.00037168578613,39.75516000018754],[-105.00035593994744,39.755164331471555],[-105.00034082214961,39.75516982840965],[-105.00032647798473,39.755176438063586],[-105.00031304559454,39.75518409677911],[-105.00030065434001,39.755192730798925],[-105.00028942355559,39.75520225697305],[-105.0002794614,39.75521258355957],[-105.00027086381449,39.75522361110816],[-105.00026371359893,39.75523523341779],[-105.00025807961441,39.75524733855956],[-105.00025401611998,39.75525980995455],[-105.00025156225011,39.75527252749656],[-105.0002507416378,39.75528536870883],[-105.00025156218688,39.7552982099235],[-105.00025401599595,39.75531092747261],[-105.00025807943435,39.755323398879106],[-105.00026371336975,39.75533550403636],[-105.00027086354498,39.75534712636488],[-105.00027946110055,39.75535815393501],[-105.00028942323769,39.7553684805449],[-105.00030065401586,39.75537800674334],[-105.00031304527663,39.755386640787464],[-105.00032647768528,39.75539429952635],[-105.00034082188012,39.75540090920184],[-105.00035593971823,39.755406406158805],[-105.00037168560605,39.75541073745831],[-105.00038790790136,39.75541386138733],[-105.00040445037372,39.75541574786056],[-105.00042115370927,39.755416378710116],[-105.00042115370927,39.755416378710116],[-105.00042115370927,39.755416378710116],[-105.00042115370927,39.755416378710116]],[[-105.00007527171282,39.75663080529584],[-105.00009206948951,39.756630170890624],[-105.00010870549353,39.75662827378464],[-105.00012501951015,39.756625132248196],[-105.00014085442565,39.75662077653615],[-105.00015605774044,39.75661524859663],[-105.00017048303772,39.75660860166698],[-105.00018399139353,39.75660089976109],[-105.00019645271473,39.75659221705285],[-105.00020774699193,39.75658263716185],[-105.00021776545513,39.75657225234803],[-105.00022641162136,39.756561162623164],[-105.00023360222372,39.75654947478768],[-105.00023926801335,39.75653730140209],[-105.00024335442635,39.75652475970299],[-105.00024582210912,39.756511970473966],[-105.00024664729742,39.75649905688237],[-105.00024582204517,39.7564861432932],[-105.00024335430089,39.75647335407134],[-105.00023926783123,39.75646081238388],[-105.00023360199191,39.75644863901397],[-105.00022641134878,39.75643695119758],[-105.00021776515229,39.7564258614945],[-105.00020774667041,39.75641547670431],[-105.0001964523869,39.756405896837904],[-105.00018399107199,39.75639721415425],[-105.00017048273487,39.75638951227199],[-105.0001560574679,39.756382865364124],[-105.00014085419386,39.7563773374437],[-105.00012501932801,39.75637298174732],[-105.00010870536808,39.756369840222526],[-105.00009206942556,39.75636794312371],[-105.00007527171282,39.75636730872092],[-105.00005847400007,39.75636794312371],[-105.00004183805756,39.756369840222526],[-105.00002552409761,39.75637298174732],[-105.00000968923179,39.7563773374437],[-104.99999448595774,39.756382865364124],[-104.99998006069077,39.75638951227199],[-104.99996655235363,39.75639721415425],[-104.99995409103872,39.756405896837904],[-104.9999427967552,39.75641547670431],[-104.99993277827336,39.7564258614945],[-104.99992413207684,39.75643695119758],[-104.99991694143372,39.75644863901397],[-104.9999112755944,39.75646081238388],[-104.99990718912474,39.75647335407134],[-104.99990472138047,39.7564861432932],[-104.9999038961282,39.75649905688237],[-104.99990472131651,39.756511970473966],[-104.99990718899927,39.75652475970299],[-104.99991127541227,39.75653730140209],[-104.99991694120193,39.75654947478768],[-104.99992413180428,39.756561162623164],[-104.99993277797049,39.75657225234803],[-104.9999427964337,39.75658263716185],[-104.9999540907109,39.75659221705285],[-104.99996655203212,39.75660089976109],[-104.9999800603879,39.75660860166698],[-104.99999448568518,39.75661524859663],[-105.00000968899997,39.75662077653615],[-105.0000255239155,39.756625132248196],[-105.0000418379321,39.75662827378464],[-105.00005847393612,39.756630170890624],[-105.00007527171282,39.75663080529584],[-105.00007527171282,39.75663080529584],[-105.00007527171282,39.75663080529584],[-105.00007527171282,39.75663080529584]],[[-105.00122915517893,39.75605962374737],[-105.00124591833946,39.756058990644256],[-105.00126252006066,39.75605709743207],[-105.00127880045802,39.75605396234358],[-105.0012946027416,39.75604961557158],[-105.00130977472605,39.75604409897808],[-105.00132417029629,39.75603746569117],[-105.00133765081465,39.756029779593334],[-105.00135008645611,39.756021114706236],[-105.00136135745856,39.75601155447782],[-105.0013713552762,39.756001190978694],[-105.0013799836248,39.75599012401533],[-105.00138715940913,39.75597846016895],[-105.00139281352301,39.75596631176905],[-105.00139689151497,39.75595379581159],[-105.00139935411252,39.75594103283225],[-105.00140017760037,39.7559281457456],[-105.00139935404884,39.755915258661354],[-105.00139689139004,39.755902495689156],[-105.00139281334164,39.755889979743294],[-105.0013871591783,39.755877831358994],[-105.00137998335336,39.755866167531636],[-105.00137135497458,39.75585510058996],[-105.00136135713836,39.75584473711437],[-105.00135008612963,39.75583517691045],[-105.00133765049446,39.755826512047825],[-105.00132416999466,39.755818825973535],[-105.00130977445461,39.75581219270832],[-105.00129460251075,39.75580667613384],[-105.00127880027667,39.75580232937744],[-105.00126251993575,39.75579919430055],[-105.00124591827577,39.75579730109551],[-105.00122915517893,39.7557966679948],[-105.00121239208211,39.75579730109551],[-105.00119579042213,39.75579919430055],[-105.00117951008122,39.75580232937744],[-105.00116370784711,39.75580667613384],[-105.00114853590327,39.75581219270832],[-105.00113414036322,39.755818825973535],[-105.00112065986342,39.755826512047825],[-105.00110822422825,39.75583517691045],[-105.00109695321952,39.75584473711437],[-105.0010869553833,39.75585510058996],[-105.00107832700452,39.755866167531636],[-105.00107115117959,39.755877831358994],[-105.00106549701624,39.755889979743294],[-105.00106141896784,39.755902495689156],[-105.00105895630904,39.755915258661354],[-105.0010581327575,39.7559281457456],[-105.00105895624536,39.75594103283225],[-105.00106141884291,39.75595379581159],[-105.00106549683487,39.75596631176905],[-105.00107115094875,39.75597846016895],[-105.00107832673308,39.75599012401533],[-105.00108695508168,39.756001190978694],[-105.00109695289932,39.75601155447782],[-105.00110822390177,39.756021114706236],[-105.00112065954323,39.756029779593334],[-105.0011341400616,39.75603746569117],[-105.00114853563183,39.75604409897808],[-105.00116370761627,39.75604961557158],[-105.00117950989986,39.75605396234358],[-105.00119579029722,39.75605709743207],[-105.00121239201842,39.756058990644256],[-105.00122915517893,39.75605962374737],[-105.00122915517893,39.75605962374737],[-105.00122915517893,39.75605962374737],[-105.00122915517893,39.75605962374737]],[[-105.00139930332804,39.7557455530538],[-105.00141599553892,39.75574492262741],[-105.00143252699378,39.75574303741961],[-105.0014487384848,39.7557399155861],[-105.00146447388562,39.75573558719199],[-105.00147958165508,39.75573009392233],[-105.00149391629647,39.75572348868056],[-105.00150733975894,39.75571583507909],[-105.00151972276696,39.75570720682661],[-105.0015309460653,39.75569768701826],[-105.00154090156757,39.755687367335355],[-105.00154949339704,39.75567634716243],[-105.00155663881017,39.755664732630066],[-105.00156226899333,39.75565263559283],[-105.00156632972542,39.75564017255203],[-105.00156878190025,39.755627463533735],[-105.00156960190286,39.75561463093283],[-105.0015687818371,39.75560179833432],[-105.00156632960154,39.7555890893231],[-105.00156226881347,39.755576626293816],[-105.00155663858128,39.75556452927205],[-105.00154949312788,39.75555291475853],[-105.00154090126848,39.75554189460712],[-105.00153094574783,39.755531574947554],[-105.00151972244326,39.75552205516349],[-105.00150733944147,39.75551342693529],[-105.00149391599741,39.75550577335715],[-105.00147958138592,39.755499168136886],[-105.00146447365674,39.75549367488608],[-105.00144873830496,39.75548934650745],[-105.00143252686989,39.755486224685434],[-105.00141599547578,39.755484339484724],[-105.00139930332804,39.75548370906072],[-105.00138261118032,39.755484339484724],[-105.00136607978618,39.755486224685434],[-105.00134986835113,39.75548934650745],[-105.00133413299935,39.75549367488608],[-105.00131902527016,39.755499168136886],[-105.00130469065869,39.75550577335715],[-105.00129126721461,39.75551342693529],[-105.00127888421282,39.75552205516349],[-105.00126766090825,39.755531574947554],[-105.0012577053876,39.75554189460712],[-105.0012491135282,39.75555291475853],[-105.00124196807481,39.75556452927205],[-105.0012363378426,39.755576626293816],[-105.00123227705454,39.7555890893231],[-105.00122982481899,39.75560179833432],[-105.00122900475324,39.75561463093283],[-105.00122982475582,39.755627463533735],[-105.00123227693065,39.75564017255203],[-105.00123633766277,39.75565263559283],[-105.00124196784591,39.755664732630066],[-105.00124911325905,39.75567634716243],[-105.00125770508853,39.755687367335355],[-105.00126766059078,39.75569768701826],[-105.00127888388913,39.75570720682661],[-105.00129126689714,39.75571583507909],[-105.00130469035963,39.75572348868056],[-105.00131902500101,39.75573009392233],[-105.00133413277047,39.75573558719199],[-105.00134986817129,39.7557399155861],[-105.00136607966229,39.75574303741961],[-105.00138261111717,39.75574492262741],[-105.00139930332804,39.7557455530538],[-105.00139930332804,39.7557455530538],[-105.00139930332804,39.7557455530538],[-105.00139930332804,39.7557455530538]],[[-105.00199125448242,39.755196547693075],[-105.00201448683784,39.755195670252824],[-105.00203749545123,39.75519304638237],[-105.00206005873534,39.7551887013512],[-105.00208195939189,39.75518267700468],[-105.00210298650417,39.755175031360984],[-105.00212293756852,39.75516583805236],[-105.0021416204444,39.75515518561601],[-105.00215885520501,39.75514317664137],[-105.00217447587004,39.75512992678209],[-105.00218833200407,39.75511556364225],[-105.00220029016549,39.75510022554739],[-105.0022102351915,39.75508406021233],[-105.0022180713072,39.75506722331863],[-105.00222372304789,39.75504987701521],[-105.00222713598573,39.75503218835676],[-105.00222827725399,39.75501432769494],[-105.0022271358634,39.754996467037756],[-105.00222372280791,39.75497877839302],[-105.00221807095885,39.75496143211188],[-105.00221023474812,39.75494459524815],[-105.00220028964412,39.75492842994962],[-105.00218833142475,39.75491309189643],[-105.00217447525502,39.754898728801805],[-105.00215885457798,39.75488547898955],[-105.00214161982939,39.75487347006192],[-105.00212293698921,39.7548628176708],[-105.0021029859828,39.75485362440385],[-105.0020819589485,39.75484597879668],[-105.00206005838699,39.75483995448013],[-105.00203749521125,39.75483560947125],[-105.00201448671552,39.7548329856145],[-105.00199125448242,39.75483210817888],[-105.00196802224932,39.7548329856145],[-105.00194501375357,39.75483560947125],[-105.00192245057787,39.75483995448013],[-105.00190055001634,39.75484597879668],[-105.00187952298204,39.75485362440385],[-105.00185957197564,39.7548628176708],[-105.00184088913544,39.75487347006192],[-105.00182365438685,39.75488547898955],[-105.00180803370982,39.754898728801805],[-105.00179417754009,39.75491309189643],[-105.00178221932073,39.75492842994962],[-105.00177227421672,39.75494459524815],[-105.001764438006,39.75496143211188],[-105.00175878615693,39.75497877839302],[-105.00175537310143,39.754996467037756],[-105.00175423171085,39.75501432769494],[-105.0017553729791,39.75503218835676],[-105.00175878591696,39.75504987701521],[-105.00176443765763,39.75506722331863],[-105.00177227377333,39.75508406021233],[-105.00178221879935,39.75510022554739],[-105.00179417696077,39.75511556364225],[-105.00180803309482,39.75512992678209],[-105.00182365375981,39.75514317664137],[-105.00184088852045,39.75515518561601],[-105.00185957139632,39.75516583805236],[-105.00187952246065,39.755175031360984],[-105.00190054957294,39.75518267700468],[-105.00192245022949,39.7551887013512],[-105.0019450135136,39.75519304638237],[-105.00196802212699,39.755195670252824],[-105.00199125448242,39.755196547693075],[-105.00199125448242,39.755196547693075],[-105.00199125448242,39.755196547693075],[-105.00199125448242,39.755196547693075]],[[-105.00528632215163,39.755133614199025],[-105.00530315626244,39.75513297840773],[-105.00531982825066,39.755131077156925],[-105.005336177555,39.75512792875679],[-105.00535204672191,39.7551235635283],[-105.00536728292194,39.75511802351123],[-105.00538173942155,39.755111362059246],[-105.00539527699631,39.75510364332607],[-105.00540776527171,39.75509494164769],[-105.00541908397872,39.755085340826355],[-105.00542912411211,39.75507493332361],[-105.0054377889802,39.75506381936972],[-105.00544499513596,39.75505210599844],[-105.00545067318082,39.755039906016236],[-105.00545476843277,39.755027336915816],[-105.00545724145314,39.75501451974467],[-105.00545806842628,39.755001577939254],[-105.00545724138891,39.75498863613628],[-105.00545476830679,39.754975818972326],[-105.0054506729979,39.7549632498836],[-105.00544499490317,39.75495104991714],[-105.00543778870644,39.754939336565045],[-105.00542912380796,39.75492822263302],[-105.00541908365581,39.75491781515401],[-105.00540776494248,39.75490821435738],[-105.00539527667341,39.75489951270368],[-105.00538173911738,39.754891793994254],[-105.0053672826482,39.75488513256415],[-105.00535204648912,39.75487959256624],[-105.00533617737209,39.7548752273535],[-105.00531982812468,39.75487207896505],[-105.00530315619821,39.75487017772146],[-105.00528632215163,39.75486954193259],[-105.00526948810504,39.75487017772146],[-105.0052528161786,39.75487207896505],[-105.00523646693118,39.7548752273535],[-105.00522059781416,39.75487959256624],[-105.00520536165509,39.75488513256415],[-105.0051909051859,39.754891793994254],[-105.00517736762987,39.75489951270368],[-105.00516487936079,39.75490821435738],[-105.00515356064746,39.75491781515401],[-105.00514352049532,39.75492822263302],[-105.00513485559682,39.754939336565045],[-105.0051276494001,39.75495104991714],[-105.00512197130536,39.7549632498836],[-105.00511787599649,39.754975818972326],[-105.00511540291434,39.75498863613628],[-105.00511457587697,39.755001577939254],[-105.00511540285012,39.75501451974467],[-105.0051178758705,39.755027336915816],[-105.00512197112245,39.755039906016236],[-105.00512764916732,39.75505210599844],[-105.00513485532308,39.75506381936972],[-105.00514352019115,39.75507493332361],[-105.00515356032456,39.755085340826355],[-105.00516487903157,39.75509494164769],[-105.00517736730697,39.75510364332607],[-105.00519090488172,39.755111362059246],[-105.00520536138133,39.75511802351123],[-105.00522059758136,39.7551235635283],[-105.00523646674826,39.75512792875679],[-105.00525281605262,39.755131077156925],[-105.00526948804081,39.75513297840773],[-105.00528632215163,39.755133614199025],[-105.00528632215163,39.755133614199025],[-105.00528632215163,39.755133614199025],[-105.00528632215163,39.755133614199025]],[[-105.00463853692976,39.75556864733378],[-105.00465531109178,39.75556801381066],[-105.00467192370854,39.75556611934247],[-105.00468821479056,39.75556298217409],[-105.00470402744502,39.75555863251834],[-105.00471920938666,39.755553112265],[-105.00473361440457,39.75554647457741],[-105.00474710377003,39.755538783380416],[-105.00475954757287,39.75553011274483],[-105.00477082597237,39.75552054617394],[-105.00478083035145,39.755510175799415],[-105.00478946436274,39.75549910149397],[-105.00479664485644,39.75548742990951],[-105.00480230268104,39.75547527345008],[-105.00480638334932,39.75546274918924],[-105.00480884756301,39.75544997774265],[-105.0048096715913,39.755437082106404],[-105.00480884749925,39.75542418647256],[-105.00480638322422,39.755411415033116],[-105.00480230249941,39.755398890783894],[-105.00479664462529,39.75538673434009],[-105.00478946409095,39.75537506277468],[-105.00478083004944,39.755363988490956],[-105.00477082565176,39.75535361813999],[-105.004759547246,39.755344051593624],[-105.00474710344943,39.75533538098255],[-105.00473361410255,39.755327689809135],[-105.00471920911488,39.75532105214326],[-105.00470402721388,39.75531553190896],[-105.00468821460895,39.75531118226884],[-105.00467192358344,39.75530804511207],[-105.004655311028,39.75530615065104],[-105.00463853692976,39.75530551713032],[-105.00462176283152,39.75530615065104],[-105.00460515027609,39.75530804511207],[-105.00458885925057,39.75531118226884],[-105.00457304664567,39.75531553190896],[-105.00455786474467,39.75532105214326],[-105.00454345975697,39.755327689809135],[-105.00452997041012,39.75533538098255],[-105.00451752661355,39.755344051593624],[-105.00450624820778,39.75535361813999],[-105.00449624381008,39.755363988490956],[-105.0044876097686,39.75537506277468],[-105.00448042923425,39.75538673434009],[-105.00447477136011,39.755398890783894],[-105.0044706906353,39.755411415033116],[-105.00446822636029,39.75542418647256],[-105.00446740226825,39.755437082106404],[-105.00446822629651,39.75544997774265],[-105.00447069051022,39.75546274918924],[-105.0044747711785,39.75547527345008],[-105.0044804290031,39.75548742990951],[-105.00448760949679,39.75549910149397],[-105.0044962435081,39.755510175799415],[-105.00450624788718,39.75552054617394],[-105.00451752628665,39.75553011274483],[-105.0045299700895,39.755538783380416],[-105.00454345945498,39.75554647457741],[-105.00455786447286,39.755553112265],[-105.00457304641452,39.75555863251834],[-105.00458885906896,39.75556298217409],[-105.004605150151,39.75556611934247],[-105.00462176276774,39.75556801381066],[-105.00463853692976,39.75556864733378],[-105.00463853692976,39.75556864733378],[-105.00463853692976,39.75556864733378],[-105.00463853692976,39.75556864733378]],[[-105.00431784186638,39.75659380540827],[-105.00433452703763,39.756593175255496],[-105.00435105152066,39.75659129086598],[-105.00436725617479,39.75658817038746],[-105.00438298493951,39.75658384387207],[-105.00439808633753,39.756578352986715],[-105.00441241493357,39.7565717506119],[-105.00442583273497,39.756564100332405],[-105.00443821052069,39.75655547582495],[-105.00444942908582,39.756545960148614],[-105.00445938038955,39.75653564494489],[-105.00446796859559,39.75652462955517],[-105.00447511099532,39.756513020064],[-105.00448073880403,39.75650092827738],[-105.00448479782361,39.756488470646076],[-105.00448724896431,39.756475767144025],[-105.00448806862109,39.756462940113],[-105.00448724890119,39.75645011308437],[-105.00448479769985,39.75643740958939],[-105.00448073862435,39.75642495196957],[-105.0044751107666,39.75641286019842],[-105.00446796832667,39.756401250726086],[-105.00445938009072,39.75639023535786],[-105.00444942876861,39.75637992017746],[-105.00443821019726,39.75637040452538],[-105.00442583241775,39.75636178004218],[-105.00441241463476,39.756354129786004],[-105.0043980860686,39.756347527432695],[-105.0043829847108,39.75634203656617],[-105.00436725599508,39.75633771006624],[-105.0043510513969,39.75633458959921],[-105.00433452697455,39.756332705216764],[-105.00431784186638,39.75633207506638],[-105.00430115675823,39.756332705216764],[-105.00428463233588,39.75633458959921],[-105.00426842773767,39.75633771006624],[-105.00425269902195,39.75634203656617],[-105.00423759766414,39.756347527432695],[-105.00422326909802,39.756354129786004],[-105.00420985131503,39.75636178004218],[-105.0041974735355,39.75637040452538],[-105.00418625496415,39.75637992017746],[-105.00417630364204,39.75639023535786],[-105.00416771540608,39.756401250726086],[-105.00416057296616,39.75641286019842],[-105.0041549451084,39.75642495196957],[-105.00415088603292,39.75643740958939],[-105.00414843483156,39.75645011308437],[-105.00414761511166,39.756462940113],[-105.00414843476847,39.756475767144025],[-105.00415088590914,39.756488470646076],[-105.00415494492873,39.75650092827738],[-105.00416057273746,39.756513020064],[-105.00416771513717,39.75652462955517],[-105.00417630334323,39.75653564494489],[-105.00418625464694,39.756545960148614],[-105.00419747321206,39.75655547582495],[-105.00420985099778,39.756564100332405],[-105.0042232687992,39.7565717506119],[-105.00423759739522,39.756578352986715],[-105.00425269879324,39.75658384387207],[-105.00426842755797,39.75658817038746],[-105.0042846322121,39.75659129086598],[-105.00430115669512,39.756593175255496],[-105.00431784186638,39.75659380540827],[-105.00431784186638,39.75659380540827],[-105.00431784186638,39.75659380540827],[-105.00431784186638,39.75659380540827]],[[-105.00313569166269,39.757154107424135],[-105.00315250068903,39.75715347259886],[-105.0031691478343,39.7571515742368],[-105.00318547277656,39.757148430620326],[-105.00320131829685,39.75714407202434],[-105.00321653179343,39.75713854042473],[-105.00323096675143,39.757131889094104],[-105.00324448415388,39.757124182088724],[-105.00325695382053,39.7571154936316],[-105.0032682556616,39.757105907397694],[-105.00327828083424,39.75709551570803],[-105.00328693279086,39.757084418640574],[-105.00329412820878,39.7570727230665],[-105.00329979779283,39.757060541620845],[-105.0033038869425,39.75704799161782],[-105.00330635627789,39.75703519392096],[-105.0033071820188,39.757022271779206],[-105.00330635621384,39.75700934963987],[-105.00330388681688,39.7569965519502],[-105.00329979761047,39.756984001958834],[-105.00329412797667,39.75697182052886],[-105.00328693251791,39.75696012497391],[-105.00327828053095,39.75694902792828],[-105.00326825533963,39.75693863626228],[-105.00325695349227,39.75692905005298],[-105.00324448383192,39.75692036162048],[-105.00323096644816,39.75691265463877],[-105.0032165315205,39.75690600332996],[-105.00320131806471,39.75690047174947],[-105.0031854725942,39.75689611316917],[-105.00316914770869,39.756892969564355],[-105.00315250062496,39.75689107120948],[-105.00313569166269,39.75689043638663],[-105.0031188827004,39.75689107120948],[-105.00310223561671,39.756892969564355],[-105.0030859107312,39.75689611316917],[-105.00307006526066,39.75690047174947],[-105.00305485180489,39.75690600332996],[-105.00304041687723,39.75691265463877],[-105.00302689949345,39.75692036162048],[-105.00301442983312,39.75692905005298],[-105.00300312798575,39.75693863626228],[-105.00299310279443,39.75694902792828],[-105.00298445080749,39.75696012497391],[-105.00297725534872,39.75697182052886],[-105.00297158571493,39.756984001958834],[-105.00296749650849,39.7569965519502],[-105.00296502711154,39.75700934963987],[-105.0029642013066,39.757022271779206],[-105.00296502704751,39.75703519392096],[-105.0029674963829,39.75704799161782],[-105.00297158553256,39.757060541620845],[-105.0029772551166,39.7570727230665],[-105.00298445053454,39.757084418640574],[-105.00299310249113,39.75709551570803],[-105.0030031276638,39.757105907397694],[-105.00301442950486,39.7571154936316],[-105.00302689917152,39.757124182088724],[-105.00304041657395,39.757131889094104],[-105.00305485153196,39.75713854042473],[-105.00307006502855,39.75714407202434],[-105.00308591054883,39.757148430620326],[-105.00310223549108,39.7571515742368],[-105.00311888263637,39.75715347259886],[-105.00313569166269,39.757154107424135],[-105.00313569166269,39.757154107424135],[-105.00313569166269,39.757154107424135],[-105.00313569166269,39.757154107424135]],[[-105.00183122609035,39.75804731798472],[-105.00184814141204,39.75804667915328],[-105.001864893829,39.75804476881129],[-105.00188132200542,39.75804160535648],[-105.00189726772814,39.75803721925484],[-105.00191257743036,39.758031652747135],[-105.00192710367075,39.758024959442174],[-105.00194070655323,39.75801720380045],[-105.00195325507427,39.75800846051337],[-105.00196462838473,39.757998813783956],[-105.00197471695346,39.7579883565158],[-105.0019834236223,39.75797718941851],[-105.00199066454175,39.75796542003761],[-105.00199636997836,39.75795316171897],[-105.0020004849864,39.75794053251713],[-105.00200296993691,39.75792765405838],[-105.00200380089936,39.75791465036941],[-105.00200296987204,39.75790164668289],[-105.00200048485917,39.75788876823141],[-105.00199636979366,39.75787613904138],[-105.00199066430669,39.75786388073863],[-105.0019834233459,39.75785211137709],[-105.00197471664633,39.75784094430188],[-105.00196462805867,39.75783048705771],[-105.00195325474185,39.75782084035322],[-105.00194070622717,39.757812097091076],[-105.00192710336363,39.757804341473324],[-105.00191257715396,39.757797648190454],[-105.00189726749306,39.75779208170211],[-105.00188132182072,39.75778769561636],[-105.00186489370179,39.75778453217336],[-105.0018481413472,39.75778262183864],[-105.00183122609035,39.75778198300965],[-105.00181431083348,39.75778262183864],[-105.00179755847888,39.75778453217336],[-105.00178113035994,39.75778769561636],[-105.00176518468761,39.75779208170211],[-105.00174987502672,39.757797648190454],[-105.00173534881705,39.757804341473324],[-105.0017217459535,39.757812097091076],[-105.00170919743883,39.75782084035322],[-105.001697824122,39.75783048705771],[-105.00168773553435,39.75784094430188],[-105.00167902883477,39.75785211137709],[-105.00167178787399,39.75786388073863],[-105.001666082387,39.75787613904138],[-105.00166196732148,39.75788876823141],[-105.00165948230864,39.75790164668289],[-105.00165865128132,39.75791465036941],[-105.00165948224377,39.75792765405838],[-105.00166196719427,39.75794053251713],[-105.00166608220232,39.75795316171897],[-105.00167178763891,39.75796542003761],[-105.00167902855837,39.75797718941851],[-105.00168773522722,39.7579883565158],[-105.00169782379595,39.757998813783956],[-105.0017091971064,39.75800846051337],[-105.00172174562745,39.75801720380045],[-105.00173534850992,39.758024959442174],[-105.00174987475032,39.758031652747135],[-105.00176518445254,39.75803721925484],[-105.00178113017526,39.75804160535648],[-105.00179755835167,39.75804476881129],[-105.00181431076864,39.75804667915328],[-105.00183122609035,39.75804731798472],[-105.00183122609035,39.75804731798472],[-105.00183122609035,39.75804731798472],[-105.00183122609035,39.75804731798472]],[[-105.0031056322883,39.75884514416734],[-105.00312254667864,39.75884450537847],[-105.00313929817321,39.75884259516379],[-105.00315572544508,39.75883943191982],[-105.00317167028979,39.75883504611048],[-105.00318697914908,39.758829479973755],[-105.00320150458964,39.758822787114866],[-105.00321510672312,39.75881503199001],[-105.00322765455324,39.75880628928563],[-105.00323902723747,39.758796643199105],[-105.00324911525072,39.75878618662789],[-105.00325782144017,39.758775020274804],[-105.00326506196095,39.758763251678275],[-105.00327076708341,39.75875099417659],[-105.00327488186487,39.75873836581641],[-105.00327736667856,39.75872548821594],[-105.00327819759524,39.75871248539359],[-105.00327736661372,39.7586994825737],[-105.00327488173767,39.75868660498048],[-105.00327076689872,39.758673976632124],[-105.0032650617259,39.758661719146325],[-105.0032578211638,39.75864995056915],[-105.00324911494363,39.75863878423816],[-105.00323902691146,39.75862832769091],[-105.00322765422084,39.758618681629315],[-105.0032151063971,39.75860993894985],[-105.00320150428256,39.75860218384897],[-105.0031869788727,39.758595491012166],[-105.00317167005475,39.75858992489481],[-105.0031557252604,39.758585539101354],[-105.00313929804601,39.75858237586918],[-105.00312254661378,39.75858046566178],[-105.0031056322883,39.75857982687537],[-105.00308871796283,39.75858046566178],[-105.0030719665306,39.75858237586918],[-105.00305553931621,39.758585539101354],[-105.00303959452185,39.75858992489481],[-105.0030242857039,39.758595491012166],[-105.00300976029405,39.75860218384897],[-105.00299615817949,39.75860993894985],[-105.00298361035574,39.758618681629315],[-105.00297223766515,39.75862832769091],[-105.00296214963298,39.75863878423816],[-105.00295344341279,39.75864995056915],[-105.00294620285071,39.758661719146325],[-105.00294049767788,39.758673976632124],[-105.00293638283894,39.75868660498048],[-105.00293389796289,39.7586994825737],[-105.00293306698134,39.75871248539359],[-105.00293389789805,39.75872548821594],[-105.00293638271174,39.75873836581641],[-105.0029404974932,39.75875099417659],[-105.00294620261566,39.758763251678275],[-105.00295344313643,39.758775020274804],[-105.00296214932588,39.75878618662789],[-105.00297223733914,39.758796643199105],[-105.00298361002335,39.75880628928563],[-105.00299615785349,39.75881503199001],[-105.00300975998697,39.758822787114866],[-105.00302428542753,39.758829479973755],[-105.00303959428682,39.75883504611048],[-105.00305553913152,39.75883943191982],[-105.0030719664034,39.75884259516379],[-105.00308871789795,39.75884450537847],[-105.0031056322883,39.75884514416734],[-105.0031056322883,39.75884514416734],[-105.0031056322883,39.75884514416734],[-105.0031056322883,39.75884514416734]],[[-105.0039595023391,39.7583520867401],[-105.00397638746887,39.75835144905173],[-105.00399310998468,39.758349542127924],[-105.00400950883868,39.75834638433352],[-105.00402542610007,39.75834200607995],[-105.00404070847625,39.75833644953245],[-105.00405520878898,39.75832976820385],[-105.00406878739187,39.75832202643935],[-105.00408131351527,39.7583132987967],[-105.0040926665257,39.75830366932822],[-105.00410273708752,39.758293230771336],[-105.00411142821604,39.758282083655374],[-105.0041186562113,39.7582703353335],[-105.00412435146444,39.75825809894874],[-105.00412845912773,39.75824549234438],[-105.00413093964292,39.7582326369291],[-105.00413176912227,39.75821965650769],[-105.0041309395783,39.75820667608871],[-105.00412845900095,39.75819382068069],[-105.0041243512804,39.7581812140881],[-105.00411865597708,39.75816897771916],[-105.0041114279406,39.758157229416575],[-105.00410273678149,39.75814608232264],[-105.0040926662008,39.75813564378963],[-105.00408131318403,39.758126014346],[-105.00406878706698,39.75811728672819],[-105.00405520848294,39.75810954498757],[-105.00404070820083,39.75810286368099],[-105.00402542586585,39.75809730715278],[-105.00400950865462,39.75809292891504],[-105.00399310985792,39.7580897711324],[-105.00397638740425,39.75808786421584],[-105.0039595023391,39.75808722652991],[-105.00394261727395,39.75808786421584],[-105.00392589482028,39.7580897711324],[-105.00390949602355,39.75809292891504],[-105.00389357881235,39.75809730715278],[-105.00387829647737,39.75810286368099],[-105.00386379619526,39.75810954498757],[-105.00385021761122,39.75811728672819],[-105.00383769149417,39.758126014346],[-105.00382633847738,39.75813564378963],[-105.0038162678967,39.75814608232264],[-105.0038075767376,39.758157229416575],[-105.00380034870112,39.75816897771916],[-105.0037946533978,39.7581812140881],[-105.00379054567725,39.75819382068069],[-105.0037880650999,39.75820667608871],[-105.00378723555593,39.75821965650769],[-105.00378806503527,39.7582326369291],[-105.00379054555047,39.75824549234438],[-105.00379465321376,39.75825809894874],[-105.00380034846688,39.7582703353335],[-105.00380757646217,39.758282083655374],[-105.00381626759068,39.758293230771336],[-105.0038263381525,39.75830366932822],[-105.00383769116293,39.7583132987967],[-105.00385021728633,39.75832202643935],[-105.0038637958892,39.75832976820385],[-105.00387829620195,39.75833644953245],[-105.00389357857813,39.75834200607995],[-105.00390949583952,39.75834638433352],[-105.00392589469352,39.758349542127924],[-105.00394261720933,39.75835144905173],[-105.0039595023391,39.7583520867401],[-105.0039595023391,39.7583520867401],[-105.0039595023391,39.7583520867401],[-105.0039595023391,39.7583520867401]],[[-105.00907882308994,39.75668183211298],[-105.00909571055108,39.75668119432108],[-105.00911243537583,39.75667928708773],[-105.00912883649406,39.75667612878073],[-105.00914475595323,39.75667174981644],[-105.00916004043948,39.75666619236695],[-105.00917454275432,39.756659509953785],[-105.00918812323204,39.75665176693258],[-105.00920065108497,39.75664303787318],[-105.00921200566293,39.75663340684156],[-105.00922207761525,39.7566229665902],[-105.00923076994376,39.75661181766475],[-105.00923799893704,39.756600067435784],[-105.0092436949765,39.756587829064706],[-105.00924780320695,39.75657522041394],[-105.00925028406463,39.756562362911865],[-105.00925111365851,39.756549380383355],[-105.00925028400002,39.756536397857296],[-105.00924780308016,39.75652354036246],[-105.00924369479243,39.756510931723476],[-105.00923799870274,39.75649869336822],[-105.00923076966826,39.75648694315856],[-105.00922207730915,39.756475794255124],[-105.00921200533797,39.756465354027654],[-105.00920065075366,39.75645572302089],[-105.00918812290708,39.75644699398634],[-105.0091745424482,39.75643925098902],[-105.00916004016399,39.75643256859787],[-105.00914475571894,39.75642701116768],[-105.00912883631,39.756422632219234],[-105.00911243524904,39.756419473924],[-105.00909571048646,39.75641756669789],[-105.00907882308994,39.75641692890844],[-105.00906193569341,39.75641756669789],[-105.00904521093082,39.756419473924],[-105.00902880986986,39.756422632219234],[-105.00901289046092,39.75642701116768],[-105.00899760601587,39.75643256859787],[-105.00898310373165,39.75643925098902],[-105.00896952327278,39.75644699398634],[-105.00895699542622,39.75645572302089],[-105.00894564084189,39.756465354027654],[-105.00893556887071,39.756475794255124],[-105.00892687651161,39.75648694315856],[-105.00891964747711,39.75649869336822],[-105.00891395138744,39.756510931723476],[-105.00890984309972,39.75652354036246],[-105.00890736217985,39.756536397857296],[-105.00890653252137,39.756549380383355],[-105.00890736211522,39.756562362911865],[-105.00890984297293,39.75657522041394],[-105.00891395120335,39.756587829064706],[-105.00891964724283,39.756600067435784],[-105.0089268762361,39.75661181766475],[-105.00893556856462,39.7566229665902],[-105.00894564051693,39.75663340684156],[-105.00895699509489,39.75664303787318],[-105.00896952294782,39.75665176693258],[-105.00898310342556,39.756659509953785],[-105.00899760574039,39.75666619236695],[-105.00901289022664,39.75667174981644],[-105.0090288096858,39.75667612878073],[-105.00904521080403,39.75667928708773],[-105.00906193562878,39.75668119432108],[-105.00907882308994,39.75668183211298],[-105.00907882308994,39.75668183211298],[-105.00907882308994,39.75668183211298],[-105.00907882308994,39.75668183211298]],[[-105.00800900246585,39.757698399905344],[-105.00805438540017,39.75769668593932],[-105.0080993312653,39.757691560547975],[-105.00814340720152,39.75768307309236],[-105.00818618872752,39.757671305312556],[-105.00822726382862,39.75765637054033],[-105.0082662369248,39.75763841260773],[-105.00830273268072,39.75761760446177],[-105.00833639962026,39.757594146498725],[-105.00836691351182,39.7575682646342],[-105.00839398049054,39.75754020812728],[-105.00841733988858,39.75751024717996],[-105.00843676674539,39.75747867033481],[-105.00845207397398,39.75744578169614],[-105.00846311416261,39.757411898001145],[-105.00846978099416,39.757377345569566],[-105.00847201026987,39.75734245716096],[-105.00846978052735,39.75730756877002],[-105.00846311324689,39.75727301639078],[-105.00845207264457,39.75723913278078],[-105.00843676505337,39.757206244256494],[-105.00841733789898,39.75717466755073],[-105.0083939782798,39.75714470676242],[-105.0083669111649,39.757116650428046],[-105.0083363972274,39.757090768742955],[-105.0083027303338,39.75706731095936],[-105.00826623471406,39.75704650298593],[-105.00822726183901,39.75702854521235],[-105.00818618703549,39.757013610579506],[-105.00814340587212,39.757001842914086],[-105.00809933034957,39.756993355543464],[-105.00805438493335,39.75698823020446],[-105.00800900246585,39.75698651625612],[-105.00796361999836,39.75698823020446],[-105.00791867458214,39.756993355543464],[-105.00787459905959,39.757001842914086],[-105.00783181789622,39.757013610579506],[-105.00779074309271,39.75702854521235],[-105.00775177021765,39.75704650298593],[-105.00771527459791,39.75706731095936],[-105.00768160770433,39.757090768742955],[-105.00765109376681,39.757116650428046],[-105.00762402665191,39.75714470676242],[-105.00760066703273,39.75717466755073],[-105.00758123987833,39.757206244256494],[-105.00756593228714,39.75723913278078],[-105.00755489168482,39.75727301639078],[-105.00754822440436,39.75730756877002],[-105.00754599466184,39.75734245716096],[-105.00754822393756,39.757377345569566],[-105.0075548907691,39.757411898001145],[-105.00756593095772,39.75744578169614],[-105.00758123818632,39.75747867033481],[-105.00760066504313,39.75751024717996],[-105.00762402444117,39.75754020812728],[-105.00765109141989,39.7575682646342],[-105.00768160531146,39.757594146498725],[-105.00771527225102,39.75761760446177],[-105.00775176800691,39.75763841260773],[-105.0077907411031,39.75765637054033],[-105.00783181620419,39.757671305312556],[-105.0078745977302,39.75768307309236],[-105.00791867366641,39.757691560547975],[-105.00796361953154,39.75769668593932],[-105.00800900246585,39.757698399905344],[-105.00800900246585,39.757698399905344],[-105.00800900246585,39.757698399905344],[-105.00800900246585,39.757698399905344]],[[-105.00697249001006,39.7585838147687],[-105.00698940399548,39.75858317599269],[-105.00700615508903,39.758581265816495],[-105.00702258196765,39.758578102636235],[-105.00703852643065,39.75857371691525],[-105.00705383492347,39.75856815089066],[-105.0070683600163,39.7585614581666],[-105.00708196182416,39.75855370319796],[-105.00709450935389,39.75854496066971],[-105.00710588176587,39.758535314777504],[-105.00711596953761,39.75852485841692],[-105.00712467551865,39.75851369228879],[-105.00713191586607,39.75850192392933],[-105.00713762085199,39.75848966667457],[-105.00714173553494,39.7584770385688],[-105.00714422028913,39.75846416122773],[-105.00714505118593,39.75845115866732],[-105.00714422022429,39.75843815610937],[-105.00714173540774,39.758425278775576],[-105.00713762066732,39.758412650681606],[-105.00713191563105,39.758400393442734],[-105.00712467524228,39.75838862510263],[-105.00711596923053,39.758377458996584],[-105.00710588143987,39.75836700265997],[-105.0070945090215,39.75835735679269],[-105.00708196149814,39.75834861428937],[-105.00706835970921,39.7583408593447],[-105.0070538346471,39.758334166642726],[-105.00703852619563,39.75832860063749],[-105.00702258178298,39.758324214932394],[-105.00700615496184,39.75832105176395],[-105.00698940393063,39.758319141595024],[-105.00697249001006,39.758318502821474],[-105.0069555760895,39.758319141595024],[-105.00693882505828,39.75832105176395],[-105.00692239823715,39.758324214932394],[-105.0069064538245,39.75832860063749],[-105.00689114537305,39.758334166642726],[-105.00687662031092,39.7583408593447],[-105.00686301852198,39.75834861428937],[-105.00685047099861,39.75835735679269],[-105.00683909858026,39.75836700265997],[-105.0068290107896,39.758377458996584],[-105.00682030477785,39.75838862510263],[-105.00681306438908,39.758400393442734],[-105.0068073593528,39.758412650681606],[-105.00680324461239,39.758425278775576],[-105.00680075979584,39.75843815610937],[-105.00679992883418,39.75845115866732],[-105.00680075973101,39.75846416122773],[-105.0068032444852,39.7584770385688],[-105.00680735916815,39.75848966667457],[-105.00681306415406,39.75850192392933],[-105.00682030450147,39.75851369228879],[-105.00682901048252,39.75852485841692],[-105.00683909825426,39.758535314777504],[-105.00685047066624,39.75854496066971],[-105.00686301819597,39.75855370319796],[-105.00687662000382,39.7585614581666],[-105.00689114509667,39.75856815089066],[-105.00690645358948,39.75857371691525],[-105.00692239805248,39.758578102636235],[-105.00693882493108,39.758581265816495],[-105.00695557602465,39.75858317599269],[-105.00697249001006,39.7585838147687],[-105.00697249001006,39.7585838147687],[-105.00697249001006,39.7585838147687],[-105.00697249001006,39.7585838147687]],[[-105.00494450808308,39.759875953133985],[-105.0049612210119,39.75987532196297],[-105.00497777298514,39.7598734345285],[-105.00499400459744,39.75987030900769],[-105.00500975952862,39.75986597550119],[-105.0050248860494,39.75986047574326],[-105.00503923848255,39.75985386269984],[-105.00505267860585,39.75984620005847],[-105.0050650769833,39.759837561614894],[-105.00507631421166,39.75982803056243],[-105.00508628207037,39.75981769869065],[-105.00509488456377,39.75980666550146],[-105.00510203884555,39.75979503725083],[-105.00510767601668,39.75978292592544],[-105.00511174178882,39.75977044816419],[-105.00511419700716,39.75975772413491],[-105.0051150180275,39.75974487637706],[-105.00511419694385,39.759732028621606],[-105.00511174166463,39.75971930459942],[-105.00510767583637,39.759706826849694],[-105.00510203861607,39.759694715539815],[-105.00509488429391,39.7596830873081],[-105.00508628177053,39.75967205414048],[-105.00507631389335,39.759661722292094],[-105.00506507665877,39.75965219126396],[-105.00505267828757,39.75964355284472],[-105.0050392381827,39.75963589022675],[-105.00502488577956,39.7596292772049],[-105.00500975929914,39.75962377746587],[-105.00499400441713,39.759619443974884],[-105.00497777286094,39.7596163184656],[-105.00496122094859,39.75961443103822],[-105.00494450808308,39.75961379986962],[-105.0049277952176,39.75961443103822],[-105.00491124330523,39.7596163184656],[-105.00489501174906,39.759619443974884],[-105.00487925686706,39.75962377746587],[-105.00486413038662,39.7596292772049],[-105.00484977798347,39.75963589022675],[-105.00483633787863,39.75964355284472],[-105.0048239395074,39.75965219126396],[-105.00481270227283,39.759661722292094],[-105.00480273439564,39.75967205414048],[-105.00479413187226,39.7596830873081],[-105.00478697755011,39.759694715539815],[-105.0047813403298,39.759706826849694],[-105.00477727450156,39.75971930459942],[-105.00477481922233,39.759732028621606],[-105.0047739981387,39.75974487637706],[-105.00477481915902,39.75975772413491],[-105.00477727437736,39.75977044816419],[-105.0047813401495,39.75978292592544],[-105.00478697732062,39.75979503725083],[-105.00479413160241,39.75980666550146],[-105.00480273409582,39.75981769869065],[-105.00481270195452,39.75982803056243],[-105.00482393918288,39.759837561614894],[-105.00483633756033,39.75984620005847],[-105.00484977768363,39.75985386269984],[-105.00486413011679,39.75986047574326],[-105.00487925663758,39.75986597550119],[-105.00489501156876,39.75987030900769],[-105.00491124318104,39.7598734345285],[-105.00492779515429,39.75987532196297],[-105.00494450808308,39.759875953133985],[-105.00494450808308,39.759875953133985],[-105.00494450808308,39.759875953133985],[-105.00494450808308,39.759875953133985]],[[-105.00441594006692,39.75435536518586],[-105.00384832382025,39.75386303780999],[-105.00354476348325,39.754270646764525],[-105.0041206964516,39.75483969679999],[-105.00441594006692,39.75435536518586],[-105.00441594006692,39.75435536518586],[-105.00441594006692,39.75435536518586]]]],"type":"MultiPolygon"},"type":"Feature"}]}