{"type":"FeatureCollection","_source":{"url":"https://mds.bird.co/gbfs/v2/public/atlanta/geofencing_zones.json","system_id":"bird-atlanta","operator":"Bird Rides, Inc.","gbfs_version":"2.3","feed_last_updated":1788003475,"retrieved_at":"2026-08-29T11:44:22Z","license_url":"https://www.bird.co/wp-content/uploads/2019/03/GBFS-Data-License-Agreement-2018-09-25.pdf","note":"Bird's encoding of Atlanta riding rules, not a City of Atlanta publication. Unlike Denver's, this feed backs a live fleet (~2,900 vehicles). Zones carry no name and no maximum_speed_kph -- only ride_allowed / ride_through_allowed. Verify against city ordinance before treating any polygon as authoritative."},"features":[{"properties":{"rules":[{"ride_allowed":false,"ride_through_allowed":false}]},"geometry":{"coordinates":[[[[-84.36447504464154,33.772072949882855],[-84.3644307657359,33.77194471218347],[-84.36431545769653,33.77196145672942],[-84.36434226182116,33.77206968739617],[-84.36447504464154,33.772072949882855]]]],"type":"MultiPolygon"},"type":"Feature"},{"properties":{"rules":[{"ride_allowed":false,"ride_through_allowed":true}]},"geometry":{"coordinates":[[[[-84.4004863,33.776704],[-84.4007143,33.776704],[-84.4007143,33.7766327],[-84.400497,33.7766327],[-84.4004863,33.776704],[-84.4004863,33.776704]]]],"type":"MultiPolygon"},"type":"Feature"},{"properties":{"rules":[{"ride_allowed":false,"ride_through_allowed":false}]},"geometry":{"coordinates":[[[[-84.3967917,33.7726762],[-84.3965375,33.7724722],[-84.3964028,33.7724722],[-84.3964034,33.772505],[-84.3965349,33.7725056],[-84.3965342,33.772675],[-84.3967917,33.7726762],[-84.3967917,33.7726762]]]],"type":"MultiPolygon"},"type":"Feature"},{"properties":{"rules":[{"ride_allowed":false,"ride_through_allowed":true}]},"geometry":{"coordinates":[[[[-84.37978045667874,33.78183073612327],[-84.37916685667956,33.781830206606266],[-84.3791638,33.7819213],[-84.3793177,33.7819205],[-84.379308,33.7820266],[-84.37947912563583,33.78202845292467],[-84.37949479675447,33.78191214122217],[-84.3797794,33.7819101],[-84.37978045667874,33.78183073612327],[-84.37978045667874,33.78183073612327]]]],"type":"MultiPolygon"},"type":"Feature"},{"properties":{"rules":[{"ride_allowed":false,"ride_through_allowed":true}]},"geometry":{"coordinates":[[[[-84.3904559,33.7584751],[-84.3905377,33.7583803],[-84.3904384,33.7582822],[-84.3900267,33.7585532],[-84.3901448,33.7586724],[-84.3902708,33.75861],[-84.3904559,33.7584751],[-84.3904559,33.7584751]]]],"type":"MultiPolygon"},"type":"Feature"},{"properties":{"rules":[{"ride_allowed":false,"ride_through_allowed":false}]},"geometry":{"coordinates":[[[[-84.3866402,33.7817273],[-84.3866583,33.781593],[-84.3859858,33.7815824],[-84.3860038,33.7817134],[-84.3866402,33.7817273],[-84.3866402,33.7817273]]]],"type":"MultiPolygon"},"type":"Feature"},{"properties":{"rules":[{"ride_allowed":false,"ride_through_allowed":true}]},"geometry":{"coordinates":[[[[-84.39186304807663,33.75970014984005],[-84.39206689596176,33.75969791991703],[-84.3920910358429,33.75917834627566],[-84.39194083213806,33.75917388640242],[-84.39186304807663,33.75970014984005],[-84.39186304807663,33.75970014984005]]]],"type":"MultiPolygon"},"type":"Feature"},{"properties":{"rules":[{"ride_allowed":false,"ride_through_allowed":true}]},"geometry":{"coordinates":[[[[-84.3863606,33.7895094],[-84.3862775,33.7891617],[-84.3859757,33.7893333],[-84.3861541,33.7895941],[-84.3863606,33.7895094],[-84.3863606,33.7895094]]]],"type":"MultiPolygon"},"type":"Feature"},{"properties":{"rules":[{"ride_allowed":false,"ride_through_allowed":true}]},"geometry":{"coordinates":[[[[-84.4063463,33.7787217],[-84.4061397,33.7787206],[-84.4061277,33.779298],[-84.4063396,33.7792991],[-84.4063463,33.7787217],[-84.4063463,33.7787217]]]],"type":"MultiPolygon"},"type":"Feature"},{"properties":{"rules":[{"ride_allowed":false,"ride_through_allowed":true}]},"geometry":{"coordinates":[[[[-84.37876045703888,33.78415445535724],[-84.37818644937451,33.78404745564541],[-84.37812207607097,33.78438629657158],[-84.37867194414139,33.78445094996181],[-84.37876045703888,33.78415445535724]]]],"type":"MultiPolygon"},"type":"Feature"},{"properties":{"rules":[{"ride_allowed":true,"ride_through_allowed":true}]},"geometry":{"coordinates":[[[[-84.36463057994843,33.774621495351354],[-84.3646091222763,33.77436063939138],[-84.36380982398987,33.77434726214126],[-84.36381250619888,33.77461034767701],[-84.36463057994843,33.774621495351354],[-84.36463057994843,33.774621495351354]]]],"type":"MultiPolygon"},"type":"Feature"},{"properties":{"rules":[{"ride_allowed":false,"ride_through_allowed":true}]},"geometry":{"coordinates":[[[[-84.3861725,33.7595967],[-84.3868242,33.7596123],[-84.3868081,33.7592064],[-84.3861859,33.7591997],[-84.3861725,33.7595967]]]],"type":"MultiPolygon"},"type":"Feature"},{"properties":{"rules":[{"ride_allowed":false,"ride_through_allowed":true}]},"geometry":{"coordinates":[[[[-84.3743095,33.7545699],[-84.374862,33.754329],[-84.3745669,33.7539589],[-84.3740574,33.7541997],[-84.3743095,33.7545699],[-84.3743095,33.7545699]]]],"type":"MultiPolygon"},"type":"Feature"},{"properties":{"rules":[{"ride_allowed":false,"ride_through_allowed":true}]},"geometry":{"coordinates":[[[[-84.38044945243746,33.753697509673735],[-84.3806305434555,33.75352854616894],[-84.37983681913467,33.75290770957776],[-84.37960769981146,33.753122913925125],[-84.38044945243746,33.753697509673735]]]],"type":"MultiPolygon"},"type":"Feature"},{"properties":{"rules":[{"ride_allowed":false,"ride_through_allowed":false}]},"geometry":{"coordinates":[[[[-84.39531499107241,33.76204154117124],[-84.39569585321284,33.76238493899472],[-84.39615187028826,33.762045995231645],[-84.3957869975447,33.76169366671638],[-84.39531499107241,33.76204154117124]]]],"type":"MultiPolygon"},"type":"Feature"},{"properties":{"rules":[{"ride_allowed":true,"ride_through_allowed":true}]},"geometry":{"coordinates":[[[[-84.34294760227203,33.763279101495165],[-84.3424379825592,33.76337275429835],[-84.34251844882965,33.76390791121046],[-84.34306025505066,33.76384547640956],[-84.34294760227203,33.763279101495165],[-84.34294760227203,33.763279101495165]]]],"type":"MultiPolygon"},"type":"Feature"},{"properties":{"rules":[{"ride_allowed":false,"ride_through_allowed":false}]},"geometry":{"coordinates":[[[[-84.3694642,33.8236118],[-84.3695614,33.8233616],[-84.369723,33.8228062],[-84.3693019,33.8227294],[-84.3692201,33.8231628],[-84.3691973,33.823614],[-84.3694642,33.8236118],[-84.3694642,33.8236118]]]],"type":"MultiPolygon"},"type":"Feature"},{"properties":{"rules":[{"ride_allowed":false,"ride_through_allowed":false}]},"geometry":{"coordinates":[[[[-84.3868198,33.7813556],[-84.3868211,33.7808975],[-84.3860594,33.7809098],[-84.3860647,33.781349],[-84.3868198,33.7813556],[-84.3868198,33.7813556]]]],"type":"MultiPolygon"},"type":"Feature"},{"properties":{"rules":[{"ride_allowed":false,"ride_through_allowed":true}]},"geometry":{"coordinates":[[[[-84.3632473,33.7525092],[-84.3636872,33.7534994],[-84.3640117,33.7534146],[-84.3635879,33.7524178],[-84.3632473,33.7525092],[-84.3632473,33.7525092]]]],"type":"MultiPolygon"},"type":"Feature"},{"properties":{"rules":[{"ride_allowed":false,"ride_through_allowed":false}]},"geometry":{"coordinates":[[[[-84.36302,33.76493],[-84.36303,33.76489],[-84.36303,33.7647],[-84.36305,33.7641],[-84.36304,33.76404],[-84.36254,33.76404],[-84.36253,33.76414],[-84.36251,33.7649],[-84.36302,33.76493],[-84.36302,33.76493]]]],"type":"MultiPolygon"},"type":"Feature"},{"properties":{"rules":[{"ride_allowed":false,"ride_through_allowed":true}]},"geometry":{"coordinates":[[[[-84.39999281949173,33.7745100176542],[-84.40000891053326,33.77408640579047],[-84.39911842535842,33.774081946819976],[-84.39911305999213,33.77463487332013],[-84.39986408104495,33.774639332579135],[-84.39998745538979,33.77462595518215],[-84.39999281949173,33.7745100176542]]]],"type":"MultiPolygon"},"type":"Feature"},{"properties":{"rules":[{"ride_allowed":false,"ride_through_allowed":false}]},"geometry":{"coordinates":[[[[-84.3961954,33.7515816],[-84.3963375,33.7513943],[-84.3960425,33.7512493],[-84.3959325,33.7509884],[-84.3959379,33.7507364],[-84.3952754,33.7507208],[-84.3950742,33.7509817],[-84.3953237,33.7511021],[-84.3952325,33.7512025],[-84.3961096,33.7516619],[-84.3961954,33.7515816],[-84.3961954,33.7515816]]]],"type":"MultiPolygon"},"type":"Feature"},{"properties":{"rules":[{"ride_allowed":false,"ride_through_allowed":true}]},"geometry":{"coordinates":[[[[-84.3859399,33.7595888],[-84.3859453,33.7591406],[-84.384572,33.7591295],[-84.3845533,33.759571],[-84.3859399,33.7595888]]]],"type":"MultiPolygon"},"type":"Feature"},{"properties":{"rules":[{"ride_allowed":false,"ride_through_allowed":true}]},"geometry":{"coordinates":[[[[-84.355532,33.7774162],[-84.355532,33.77724],[-84.3538127,33.7772411],[-84.3538019,33.7776971],[-84.3555307,33.7776982],[-84.355532,33.7774162],[-84.355532,33.7774162]]]],"type":"MultiPolygon"},"type":"Feature"},{"properties":{"rules":[{"ride_allowed":false,"ride_through_allowed":false}]},"geometry":{"coordinates":[[[[-84.4104056,33.7857134],[-84.4104901,33.7848184],[-84.4105592,33.7843508],[-84.4108374,33.7839055],[-84.4090806,33.783881],[-84.4090269,33.7840727],[-84.4101588,33.7841496],[-84.4102232,33.7857045],[-84.4104056,33.7857134],[-84.4104056,33.7857134]]]],"type":"MultiPolygon"},"type":"Feature"},{"properties":{"rules":[{"ride_allowed":false,"ride_through_allowed":true}]},"geometry":{"coordinates":[[[[-84.413399,33.72499],[-84.41335,33.724908],[-84.413276,33.724783],[-84.413181,33.724623],[-84.413088,33.724466],[-84.413024,33.724359],[-84.41291,33.724168],[-84.412812,33.723981],[-84.412684,33.723737],[-84.412566,33.723513],[-84.412401,33.723286],[-84.412282,33.723061],[-84.41181,33.722216],[-84.411714,33.722074],[-84.411676,33.722031],[-84.411241,33.722064],[-84.411254,33.722086],[-84.41129,33.722152],[-84.411286,33.722289],[-84.411394,33.72229],[-84.411603,33.722481],[-84.411725,33.722658],[-84.412586,33.724235],[-84.412652,33.724344],[-84.412729,33.724471],[-84.4128,33.72459],[-84.412874,33.724713],[-84.412948,33.724835],[-84.413019,33.724953],[-84.413097,33.725081],[-84.413245,33.725326],[-84.413334,33.725473],[-84.41341,33.725582],[-84.413399,33.72499],[-84.413399,33.72499]]]],"type":"MultiPolygon"},"type":"Feature"},{"properties":{"rules":[{"ride_allowed":false,"ride_through_allowed":true}]},"geometry":{"coordinates":[[[[-84.39653813297235,33.775116450947785],[-84.39657567968516,33.775085237636276],[-84.39664004608045,33.775054024313405],[-84.39679026066362,33.775103074577125],[-84.3968009891836,33.77413991341845],[-84.39618945279804,33.77413099522895],[-84.39607143844614,33.774126536197315],[-84.39581932122941,33.7741042403376],[-84.39583004690465,33.774202341670765],[-84.39550280539376,33.77418896433245],[-84.39543843711863,33.774148831162826],[-84.39538478566847,33.7740997804162],[-84.39536333115716,33.77397046772271],[-84.39491808667324,33.77396600868273],[-84.39490735783718,33.77441191940195],[-84.39532578023095,33.77441191933851],[-84.39539014945433,33.77441192016342],[-84.39549207750596,33.774398542667484],[-84.39550280602593,33.774550150718106],[-84.39593732862757,33.774554609918056],[-84.39600170069568,33.77455906918124],[-84.39600706859058,33.77466162912447],[-84.39599097565258,33.77500943319788],[-84.39598024650043,33.775156582077734],[-84.39647376717902,33.77515658290267],[-84.39655958823683,33.77514766469207],[-84.39653813297235,33.775116450947785]]]],"type":"MultiPolygon"},"type":"Feature"},{"properties":{"rules":[{"ride_allowed":false,"ride_through_allowed":true}]},"geometry":{"coordinates":[[[[-84.38220252748582,33.75438541663251],[-84.38302889931947,33.753580047144645],[-84.38201477285476,33.75286951911251],[-84.3811300210655,33.7536867425723],[-84.38220252748582,33.75438541663251]]]],"type":"MultiPolygon"},"type":"Feature"},{"properties":{"rules":[{"ride_allowed":false,"ride_through_allowed":true}]},"geometry":{"coordinates":[[[[-84.38313899561763,33.75347157448522],[-84.38404759392142,33.75262762254075],[-84.3830368621275,33.75186129861624],[-84.382185889408,33.75275020864441],[-84.38313899561763,33.75347157448522]]]],"type":"MultiPolygon"},"type":"Feature"},{"properties":{"rules":[{"ride_allowed":false,"ride_through_allowed":true}]},"geometry":{"coordinates":[[[[-84.38103983178736,33.75359443814248],[-84.38191942870618,33.75278143009134],[-84.3807978462428,33.75195959837126],[-84.3799571832642,33.75278745833815],[-84.38103983178736,33.75359443814248]]]],"type":"MultiPolygon"},"type":"Feature"},{"properties":{"rules":[{"ride_allowed":false,"ride_through_allowed":true}]},"geometry":{"coordinates":[[[[-84.3906564,33.7495931],[-84.3914813,33.7485583],[-84.3902206,33.7478625],[-84.3893985,33.7489097],[-84.3906564,33.7495931],[-84.3906564,33.7495931]]]],"type":"MultiPolygon"},"type":"Feature"},{"properties":{"rules":[{"ride_allowed":false,"ride_through_allowed":true}]},"geometry":{"coordinates":[[[[-84.403605911,33.746037333],[-84.399770443,33.749459617],[-84.399411569,33.749161222],[-84.403359185,33.745822853],[-84.403605911,33.746037333],[-84.403605911,33.746037333]]]],"type":"MultiPolygon"},"type":"Feature"},{"properties":{"rules":[{"ride_allowed":false,"ride_through_allowed":false}]},"geometry":{"coordinates":[[[[-84.3885463,33.7500433],[-84.389359,33.7489929],[-84.3879052,33.7481878],[-84.3878247,33.7482011],[-84.3877416,33.7483506],[-84.3876745,33.7485847],[-84.3876048,33.7487721],[-84.3874546,33.7490888],[-84.3873446,33.7493586],[-84.3877537,33.7496156],[-84.3878784,33.7496764],[-84.3885463,33.7500433],[-84.3885463,33.7500433]]]],"type":"MultiPolygon"},"type":"Feature"},{"properties":{"rules":[{"ride_allowed":false,"ride_through_allowed":true}]},"geometry":{"coordinates":[[[[-84.39104032,33.74946136],[-84.389535671,33.748685192],[-84.390072741,33.747965724],[-84.389424847,33.747618393],[-84.389646495,33.747317135],[-84.390665223,33.747944459],[-84.391713788,33.748543426],[-84.39104032,33.74946136],[-84.39104032,33.74946136]]]],"type":"MultiPolygon"},"type":"Feature"},{"properties":{"rules":[{"ride_allowed":false,"ride_through_allowed":true}]},"geometry":{"coordinates":[[[[-84.38406050205231,33.737371253820626],[-84.384006857872,33.736942996044085],[-84.3826174736023,33.73689392470403],[-84.382563829422,33.73845081081188],[-84.38399076461792,33.738499881261404],[-84.38406050205231,33.737371253820626],[-84.38406050205231,33.737371253820626]]]],"type":"MultiPolygon"},"type":"Feature"},{"properties":{"rules":[{"ride_allowed":false,"ride_through_allowed":true}]},"geometry":{"coordinates":[[[[-84.38201955053957,33.752655812481756],[-84.38325030729175,33.75143137089086],[-84.38210785388947,33.75071741012555],[-84.38089314848185,33.75189346122131],[-84.38201955053957,33.752655812481756]]]],"type":"MultiPolygon"},"type":"Feature"},{"properties":{"rules":[{"ride_allowed":false,"ride_through_allowed":true}]},"geometry":{"coordinates":[[[[-84.37185213435441,33.76317238316502],[-84.3718948820606,33.76142671999941],[-84.37057565432043,33.76142313128932],[-84.37055449001492,33.76318046630796],[-84.37185213435441,33.76317238316502]]]],"type":"MultiPolygon"},"type":"Feature"},{"properties":{"rules":[{"ride_allowed":false,"ride_through_allowed":true}]},"geometry":{"coordinates":[[[[-84.384128,33.7622173],[-84.3841468,33.760953],[-84.3822076,33.7609173],[-84.3821539,33.7621995],[-84.384128,33.7622173],[-84.384128,33.7622173]]]],"type":"MultiPolygon"},"type":"Feature"},{"properties":{"rules":[{"ride_allowed":false,"ride_through_allowed":true}]},"geometry":{"coordinates":[[[[-84.392257506,33.754708292],[-84.389474938,33.753276477],[-84.390086741,33.7524852],[-84.391813383,33.753483715],[-84.392810394,33.753977316],[-84.392257506,33.754708292],[-84.392257506,33.754708292]]]],"type":"MultiPolygon"},"type":"Feature"},{"properties":{"rules":[{"ride_allowed":false,"ride_through_allowed":true}]},"geometry":{"coordinates":[[[[-84.3862384557724,33.783218149866734],[-84.38626527786255,33.781572902565564],[-84.38522458076477,33.781568443857836],[-84.38453257083893,33.78178692026289],[-84.38409268856049,33.78178246156633],[-84.38399612903595,33.78317356363568],[-84.3862384557724,33.783218149866734],[-84.3862384557724,33.783218149866734]]]],"type":"MultiPolygon"},"type":"Feature"},{"properties":{"rules":[{"ride_allowed":false,"ride_through_allowed":false}]},"geometry":{"coordinates":[[[[-84.4281669,33.8045069],[-84.4284646,33.8044991],[-84.428651,33.8044885],[-84.4288374,33.8044066],[-84.4291995,33.8042161],[-84.4294597,33.8040745],[-84.4294892,33.8028821],[-84.4294932,33.8022859],[-84.4295938,33.8016897],[-84.4289822,33.8013688],[-84.4285477,33.8013487],[-84.4283278,33.8013821],[-84.4282849,33.8037892],[-84.4281776,33.8038739],[-84.4281293,33.8040032],[-84.4281669,33.8045069],[-84.4281669,33.8045069]]]],"type":"MultiPolygon"},"type":"Feature"},{"properties":{"rules":[{"ride_allowed":false,"ride_through_allowed":false}]},"geometry":{"coordinates":[[[[-84.39768610022747,33.779093825263345],[-84.39767536295554,33.77841608433473],[-84.39734819588129,33.778438380168666],[-84.39700483094795,33.778326903649074],[-84.39664272345145,33.77832690340288],[-84.39639863315162,33.77830015137021],[-84.39616799639028,33.77813517027218],[-84.39597754742601,33.77807274804582],[-84.39574956725205,33.77809950310385],[-84.39560476339597,33.77823996228216],[-84.39559671423817,33.778491890047974],[-84.39560206684595,33.778960055873995],[-84.39565035673128,33.77922535875097],[-84.39565834852506,33.77933682770023],[-84.39580323083489,33.779448301797586],[-84.39586489970891,33.7795776080433],[-84.39586221982137,33.779758189411595],[-84.39586760469483,33.780079214371135],[-84.39640401781578,33.7800881376038],[-84.39699955088881,33.78019069771927],[-84.39767000866057,33.780097053449765],[-84.39768610022747,33.779093825263345]]]],"type":"MultiPolygon"},"type":"Feature"},{"properties":{"rules":[{"ride_allowed":false,"ride_through_allowed":true}]},"geometry":{"coordinates":[[[[-84.362606796,33.725026027],[-84.361555781,33.724840422],[-84.361519787,33.724747619],[-84.36162057,33.724382393],[-84.361750147,33.72387347],[-84.361865326,33.723493273],[-84.361904921,33.723002306],[-84.361858129,33.72228082],[-84.36196611,33.722274832],[-84.362142479,33.722140114],[-84.362315249,33.72210419],[-84.362300852,33.721888642],[-84.363067516,33.721888642],[-84.363528235,33.721996416],[-84.363373463,33.722463439],[-84.36327268,33.722822685],[-84.36313591,33.72330766],[-84.363006333,33.723738751],[-84.362880355,33.724184808],[-84.362747181,33.724636849],[-84.362606796,33.725026027],[-84.362606796,33.725026027]]]],"type":"MultiPolygon"},"type":"Feature"},{"properties":{"rules":[{"ride_allowed":false,"ride_through_allowed":false}]},"geometry":{"coordinates":[[[[-84.4313613,33.804758],[-84.4310287,33.8025604],[-84.4298217,33.8017803],[-84.4297144,33.801972],[-84.429709,33.8041785],[-84.4291458,33.8043746],[-84.4290653,33.8047491],[-84.4313613,33.804758],[-84.4313613,33.804758]]]],"type":"MultiPolygon"},"type":"Feature"},{"properties":{"rules":[{"ride_allowed":false,"ride_through_allowed":true}]},"geometry":{"coordinates":[[[[-84.36406287364663,33.85372832085122],[-84.36341864056885,33.85253849348129],[-84.3632675567642,33.852547438305116],[-84.36272960621864,33.852201199848885],[-84.36297477688642,33.8518544031085],[-84.36219396069646,33.851418364422045],[-84.36190134845674,33.851775534845586],[-84.3617582274601,33.8517511712898],[-84.36087267939003,33.852793124754086],[-84.36102539766581,33.85290331623686],[-84.36062356922777,33.85341783131367],[-84.36153120361271,33.85387404624321],[-84.36213277280332,33.85318753025171],[-84.36280064284803,33.85348660479135],[-84.36322045046838,33.8541853346165],[-84.36406287364663,33.85372832085122]]]],"type":"MultiPolygon"},"type":"Feature"},{"properties":{"rules":[{"ride_allowed":false,"ride_through_allowed":true}]},"geometry":{"coordinates":[[[[-84.37368672341108,33.76387509113665],[-84.37413842417301,33.76276568163089],[-84.37419936060908,33.76148434839109],[-84.37215887010098,33.761445883011824],[-84.37211494892836,33.76388784288657],[-84.37368672341108,33.76387509113665]]]],"type":"MultiPolygon"},"type":"Feature"},{"properties":{"rules":[{"ride_allowed":false,"ride_through_allowed":false}]},"geometry":{"coordinates":[[[[-84.37709210774777,33.7865040547129],[-84.37719942667607,33.786120663566614],[-84.37722092637878,33.78574615119773],[-84.37714578249577,33.78537164935342],[-84.37704922297125,33.78518441606077],[-84.3768667754438,33.785050575231566],[-84.37672735788945,33.78489905816992],[-84.37650206379507,33.7847743529026],[-84.37598701470787,33.78473013235788],[-84.37576174353927,33.78479206543915],[-84.37556859774347,33.78489911898248],[-84.37540768048642,33.785032801935984],[-84.37533261684364,33.78518429443606],[-84.3752467899761,33.785425114967346],[-84.37510730746543,33.785897703247706],[-84.3749892864478,33.78634353816881],[-84.37483902542854,33.78690532651331],[-84.37480685038324,33.78719064123213],[-84.37495699295269,33.7874133914279],[-84.37525748824447,33.78756511079707],[-84.37559008216232,33.78759227467909],[-84.37602997590366,33.787618599365715],[-84.37627673149109,33.78754732586127],[-84.3765235023624,33.787422271748035],[-84.37679173090581,33.78714609355588],[-84.37697660285943,33.78685787808746],[-84.37709210774777,33.7865040547129]]]],"type":"MultiPolygon"},"type":"Feature"},{"properties":{"rules":[{"ride_allowed":false,"ride_through_allowed":false}]},"geometry":{"coordinates":[[[[-84.433776,33.8051872],[-84.4334595,33.805312],[-84.4331591,33.8053744],[-84.4294362,33.8053521],[-84.4292055,33.805468],[-84.429125,33.8055839],[-84.429125,33.8062258],[-84.4292431,33.8063952],[-84.4293986,33.8064487],[-84.4332825,33.806471],[-84.4341354,33.8064175],[-84.4342749,33.8063684],[-84.433776,33.8051872],[-84.433776,33.8051872]]]],"type":"MultiPolygon"},"type":"Feature"},{"properties":{"rules":[{"ride_allowed":false,"ride_through_allowed":false}]},"geometry":{"coordinates":[[[[-84.3923555,33.762479],[-84.3922809,33.7634655],[-84.3922278,33.76435455511767],[-84.39395060471928,33.7643371307352],[-84.39432336934797,33.76430610903044],[-84.39467558696488,33.76431006682646],[-84.39574723286084,33.76429581295979],[-84.39576105078127,33.763218408639275],[-84.39544669979371,33.762870795444705],[-84.39532789057931,33.762564352531996],[-84.39504040380382,33.762508738210435],[-84.39500931485901,33.762899735763696],[-84.39472256587165,33.76258954742166],[-84.39431786720817,33.762518106881004],[-84.39396323694814,33.7625945709879],[-84.39388008572399,33.76271494068445],[-84.39375668489646,33.76279526004319],[-84.39355818862079,33.76277509247462],[-84.39340798674576,33.76268149001025],[-84.39333822826875,33.76256341610484],[-84.3923555,33.762479]]]],"type":"MultiPolygon"},"type":"Feature"},{"properties":{"rules":[{"ride_allowed":false,"ride_through_allowed":false}]},"geometry":{"coordinates":[[[[-84.39467669428116,33.7599722000113],[-84.39445131939281,33.75979835638349],[-84.39435474340013,33.75975813381705],[-84.3944567204067,33.75961543672216],[-84.39406506665632,33.759280845304865],[-84.39394708971511,33.758968528007294],[-84.39377544297652,33.75855391977244],[-84.393609151507,33.75831750845431],[-84.39345895695111,33.758219384205276],[-84.39345895695111,33.75826392343005],[-84.39343212571201,33.758241653820576],[-84.39318002002214,33.7584112086742],[-84.39305126850003,33.75851375061605],[-84.39290104832706,33.758620746338174],[-84.39274549484253,33.75874120560581],[-84.39254165061699,33.758901743707874],[-84.39234850229123,33.75915140105478],[-84.39235926589336,33.75965579733852],[-84.39231634780444,33.76052966217489],[-84.39229221524249,33.761730463163985],[-84.39235392709244,33.7620060031629],[-84.39243168828146,33.76205611357476],[-84.39265161661213,33.7620928507931],[-84.3936426965027,33.76209174486134],[-84.39413219736068,33.76209397172252],[-84.39458682080993,33.762098459939466],[-84.39465118101774,33.76207386847915],[-84.39465517093751,33.76201471864525],[-84.39470755406681,33.761962282359555],[-84.39453852274974,33.76180289641897],[-84.3943588046819,33.76163903543927],[-84.39422607238897,33.761476215595344],[-84.39390820912062,33.76114178142042],[-84.39364132337681,33.760887466114696],[-84.39371635752686,33.76075243905345],[-84.3945586992431,33.760106246828244],[-84.39464983579622,33.76006589842244],[-84.39467669428116,33.7599722000113]]]],"type":"MultiPolygon"},"type":"Feature"},{"properties":{"rules":[{"ride_allowed":false,"ride_through_allowed":true}]},"geometry":{"coordinates":[[[[-84.37503755092621,33.788149243766455],[-84.37350869178772,33.78906766207432],[-84.37306880950926,33.78869316259459],[-84.37215149402618,33.789464451402644],[-84.37253773212433,33.78975869848115],[-84.37239825725555,33.789923654734345],[-84.37239289283752,33.790231275006185],[-84.37266647815704,33.79069047422522],[-84.37347650527954,33.79123437691008],[-84.37417924404144,33.79157319978674],[-84.37635719776154,33.78914791174976],[-84.37503755092621,33.788149243766455],[-84.37503755092621,33.788149243766455]]]],"type":"MultiPolygon"},"type":"Feature"},{"properties":{"rules":[{"ride_allowed":false,"ride_through_allowed":true}]},"geometry":{"coordinates":[[[[-84.413675,33.725943],[-84.413702,33.725974],[-84.413754,33.726031],[-84.413832,33.726116],[-84.413886,33.726172],[-84.413982,33.726268],[-84.414039,33.726322],[-84.414105,33.726384],[-84.414144,33.726419],[-84.414213,33.72648],[-84.414288,33.726544],[-84.414365,33.726607],[-84.414448,33.726673],[-84.414506,33.726717],[-84.414554,33.726753],[-84.414602,33.726788],[-84.414648,33.72682],[-84.414717,33.726869],[-84.414774,33.726907],[-84.414834,33.726947],[-84.414891,33.726984],[-84.415006,33.727055],[-84.415162,33.727148],[-84.415296,33.727229],[-84.415437,33.727314],[-84.415573,33.727395],[-84.415707,33.727476],[-84.416373,33.727875],[-84.416903,33.728126],[-84.417615,33.728568],[-84.417806,33.728697],[-84.418394,33.729025],[-84.419396,33.729692],[-84.420018,33.730116],[-84.421035,33.73077],[-84.422026,33.731454],[-84.422467,33.731735],[-84.423898,33.732646],[-84.424055,33.732746],[-84.424538,33.733047],[-84.424563,33.733018],[-84.425265,33.733175],[-84.425695,33.733271],[-84.427208,33.734232],[-84.427207,33.734359],[-84.43072,33.736464],[-84.43081,33.73652],[-84.430896,33.73658],[-84.430979,33.736644],[-84.431057,33.736711],[-84.431155,33.736806],[-84.431223,33.736881],[-84.431307,33.736984],[-84.431382,33.737093],[-84.431432,33.737177],[-84.431463,33.737234],[-84.431505,33.737321],[-84.431541,33.73741],[-84.431562,33.73747],[-84.43161,33.737557],[-84.431347,33.737882],[-84.431534,33.738004],[-84.431386,33.738093],[-84.432796,33.738943],[-84.433035,33.739176],[-84.433191,33.739319],[-84.433235,33.739376],[-84.433315,33.739489],[-84.433358,33.739552],[-84.433376,33.73958],[-84.433399,33.739616],[-84.433596,33.739929],[-84.433658,33.740053],[-84.433689,33.740142],[-84.433709,33.740276],[-84.43372,33.740399],[-84.433725,33.74051],[-84.433725,33.740612],[-84.433685,33.742175],[-84.43385,33.742211],[-84.43383,33.742524],[-84.433556,33.742479],[-84.43356,33.743225],[-84.43355,33.743675],[-84.43342,33.743909],[-84.433309,33.744048],[-84.43279,33.744041],[-84.432789,33.744093],[-84.432789,33.744127],[-84.432788,33.744192],[-84.432788,33.744211],[-84.432787,33.744284],[-84.432618,33.744437],[-84.432549,33.744501],[-84.432526,33.744521],[-84.432452,33.744589],[-84.432359,33.744827],[-84.432303,33.744961],[-84.432228,33.745072],[-84.432082,33.745272],[-84.431878,33.745469],[-84.431558,33.745754],[-84.430451,33.74666],[-84.430803,33.746845],[-84.431348,33.746313],[-84.431574,33.746108],[-84.431767,33.745933],[-84.431804,33.745899],[-84.431924,33.745791],[-84.432028,33.745789],[-84.432362,33.745785],[-84.432737,33.745781],[-84.432739,33.745346],[-84.432782,33.745346],[-84.432784,33.74514],[-84.432785,33.745009],[-84.432828,33.74497],[-84.432888,33.744915],[-84.432946,33.744861],[-84.433027,33.744783],[-84.433082,33.744729],[-84.433143,33.744667],[-84.433213,33.744595],[-84.43328,33.744524],[-84.433341,33.744458],[-84.4334,33.744392],[-84.433492,33.744286],[-84.433519,33.744255],[-84.433583,33.744201],[-84.433645,33.744123],[-84.433689,33.744068],[-84.433726,33.743912],[-84.434504,33.743919],[-84.434534,33.74261],[-84.434047,33.74256],[-84.434071,33.742283],[-84.434186,33.742298],[-84.434214,33.741859],[-84.434221,33.741804],[-84.434233,33.741714],[-84.434248,33.74155],[-84.434259,33.74135],[-84.43426,33.741199],[-84.434258,33.741094],[-84.434254,33.740996],[-84.434248,33.740912],[-84.43424,33.740818],[-84.434228,33.740712],[-84.434216,33.74062],[-84.434183,33.740422],[-84.434144,33.740243],[-84.434112,33.740118],[-84.433986,33.739881],[-84.433882,33.739716],[-84.433815,33.739624],[-84.43376,33.739552],[-84.433701,33.739482],[-84.433601,33.73937],[-84.433553,33.73932],[-84.433487,33.739255],[-84.43341,33.739183],[-84.433339,33.739121],[-84.433196,33.739003],[-84.432964,33.738805],[-84.433065,33.738738],[-84.432884,33.738626],[-84.432681,33.738484],[-84.432528,33.738363],[-84.432383,33.738236],[-84.432246,33.738104],[-84.432117,33.737965],[-84.432015,33.737843],[-84.431922,33.737722],[-84.431818,33.73757],[-84.431722,33.737414],[-84.431636,33.737254],[-84.431561,33.73709],[-84.431516,33.73698],[-84.431476,33.736868],[-84.43144,33.736755],[-84.431409,33.736641],[-84.430145,33.735883],[-84.429753,33.735648],[-84.429319,33.735388],[-84.429248,33.735345],[-84.42909,33.735251],[-84.428771,33.73506],[-84.427386,33.73423],[-84.42642,33.733651],[-84.42545,33.733],[-84.424852,33.732868],[-84.424806,33.732913],[-84.424635,33.732859],[-84.424366,33.732748],[-84.424264,33.732697],[-84.424166,33.732643],[-84.424199,33.732577],[-84.424104,33.732514],[-84.42467,33.73185],[-84.424544,33.731765],[-84.423922,33.732394],[-84.422998,33.731829],[-84.423068,33.731757],[-84.422406,33.731351],[-84.422282,33.731276],[-84.421908,33.731024],[-84.421884,33.731046],[-84.421465,33.730805],[-84.421247,33.730644],[-84.421106,33.730539],[-84.421077,33.730569],[-84.420468,33.730064],[-84.420988,33.729577],[-84.420882,33.729512],[-84.420375,33.72996],[-84.420265,33.729877],[-84.420112,33.729714],[-84.419999,33.729599],[-84.41968,33.729304],[-84.419615,33.729362],[-84.419067,33.729041],[-84.419021,33.729084],[-84.418574,33.728823],[-84.418216,33.728613],[-84.418147,33.728682],[-84.417916,33.728563],[-84.417999,33.728486],[-84.417065,33.727939],[-84.41653,33.727682],[-84.415412,33.727011],[-84.415412,33.726943],[-84.41511,33.72676],[-84.414921,33.726635],[-84.414708,33.726481],[-84.414506,33.726318],[-84.414354,33.726184],[-84.414221,33.726057],[-84.414082,33.725914],[-84.413984,33.725807],[-84.414098,33.725808],[-84.413977,33.725701],[-84.413895,33.725621],[-84.413809,33.725531],[-84.413749,33.725464],[-84.413691,33.725395],[-84.413653,33.725347],[-84.413675,33.725943],[-84.413675,33.725943]]]],"type":"MultiPolygon"},"type":"Feature"},{"properties":{"rules":[{"ride_allowed":false,"ride_through_allowed":true}]},"geometry":{"coordinates":[[[[-84.3506045,33.8558593],[-84.3482289,33.8546833],[-84.3463031,33.8551155],[-84.3456916,33.8557614],[-84.3457023,33.857873],[-84.3464372,33.8580734],[-84.3483085,33.8578639],[-84.3507439,33.8561087],[-84.3506045,33.8558593],[-84.3506045,33.8558593]]]],"type":"MultiPolygon"},"type":"Feature"},{"properties":{"rules":[{"ride_allowed":false,"ride_through_allowed":true}]},"geometry":{"coordinates":[[[[-84.405317284,33.722118676],[-84.39840121,33.722053886],[-84.398335281,33.720271071],[-84.39839348,33.720040786],[-84.399020133,33.720204719],[-84.399742805,33.720213126],[-84.401309438,33.720456924],[-84.40133,33.7204537],[-84.4013555,33.7204515],[-84.401621261,33.720438135],[-84.404101703,33.720274178],[-84.405317284,33.720301504],[-84.405317284,33.722118676],[-84.405317284,33.722118676]]]],"type":"MultiPolygon"},"type":"Feature"},{"properties":{"rules":[{"ride_allowed":false,"ride_through_allowed":true}]},"geometry":{"coordinates":[[[[-84.39826594199985,33.808636045372985],[-84.39626493025573,33.80799917169719],[-84.39394264016302,33.806831482195264],[-84.39375232905151,33.80806411638389],[-84.39364520832898,33.80836244343476],[-84.3928952794522,33.81002437803569],[-84.39238159451635,33.81159863484285],[-84.39299288671467,33.811572553582934],[-84.39376205205919,33.811489852606044],[-84.39438700675966,33.81133082275548],[-84.39488300587983,33.81118129890837],[-84.39541290979834,33.81096982703149],[-84.396056891419,33.81061920669175],[-84.39655645284802,33.81032450899322],[-84.39720609225334,33.80985987838456],[-84.39766563009472,33.80948313677678],[-84.39851236995311,33.80872129115893],[-84.39826594199985,33.808636045372985]]]],"type":"MultiPolygon"},"type":"Feature"},{"properties":{"rules":[{"ride_allowed":false,"ride_through_allowed":false}]},"geometry":{"coordinates":[[[[-84.3942164,33.7940391],[-84.3947716,33.7959828],[-84.3952491,33.7960095],[-84.3970086,33.7941059],[-84.3976308,33.7936022],[-84.3975611,33.7934952],[-84.3977435,33.793406],[-84.3978615,33.7934461],[-84.398575,33.79288],[-84.398685,33.7925857],[-84.3986635,33.7918234],[-84.3985938,33.7918011],[-84.398583,33.7914266],[-84.396169,33.7913909],[-84.3961583,33.7917743],[-84.3952088,33.7917966],[-84.3952142,33.7914132],[-84.3945383,33.7913553],[-84.3945383,33.79144],[-84.3943881,33.7914355],[-84.3943881,33.7913776],[-84.3933098,33.7913152],[-84.3932991,33.7916049],[-84.3936424,33.791975],[-84.3942164,33.7940391],[-84.3942164,33.7940391]]]],"type":"MultiPolygon"},"type":"Feature"},{"properties":{"rules":[{"ride_allowed":false,"ride_through_allowed":true}]},"geometry":{"coordinates":[[[[-84.3620502948761,33.850013440153305],[-84.36222195625305,33.84977286217552],[-84.3632304668426,33.84911349683736],[-84.36487197875977,33.84862342470802],[-84.3645286560058,33.84603045083735],[-84.3636167049408,33.844479975256746],[-84.36141729354858,33.843312644616475],[-84.36028003692627,33.844569083810775],[-84.35961484909052,33.8452373950038],[-84.35890674591064,33.84561164698854],[-84.36181426048279,33.850013440153305],[-84.3620502948761,33.850013440153305],[-84.3620502948761,33.850013440153305]]]],"type":"MultiPolygon"},"type":"Feature"},{"properties":{"rules":[{"ride_allowed":false,"ride_through_allowed":true}]},"geometry":{"coordinates":[[[[-84.377926714,33.754562615],[-84.368539776,33.754803759],[-84.364269211,33.75535591],[-84.359002492,33.756383513],[-84.355949454,33.757388099],[-84.354224625,33.758185625],[-84.353920244,33.757756189],[-84.353320704,33.757219391],[-84.35366198,33.756897311],[-84.354375515,33.756574846],[-84.35918419,33.755172286],[-84.363998953,33.754206016],[-84.367430163,33.753799566],[-84.3720789,33.753780393],[-84.377972833,33.753795731],[-84.377926714,33.754562615],[-84.377926714,33.754562615]]]],"type":"MultiPolygon"},"type":"Feature"},{"properties":{"rules":[{"ride_allowed":false,"ride_through_allowed":true}]},"geometry":{"coordinates":[[[[-84.383921815,33.782611208],[-84.368347355,33.782639605],[-84.367380544,33.781237289],[-84.368622233,33.78073308],[-84.36889711,33.78078035],[-84.372822481,33.780854364],[-84.377182581,33.780909516],[-84.380651725,33.780956786],[-84.384101908,33.7809883],[-84.383921815,33.782611208],[-84.383921815,33.782611208]]]],"type":"MultiPolygon"},"type":"Feature"},{"properties":{"rules":[{"ride_allowed":false,"ride_through_allowed":false}]},"geometry":{"coordinates":[[[[-84.4173971,33.7827538],[-84.4172791,33.7762707],[-84.4102517,33.7762529],[-84.409962,33.7765294],[-84.4097689,33.7769931],[-84.4104019,33.7776441],[-84.4094577,33.7785537],[-84.4103053,33.7789907],[-84.4112709,33.7794009],[-84.4122365,33.7797487],[-84.4144359,33.7799984],[-84.4152728,33.7803105],[-84.4159702,33.780899],[-84.4173971,33.7827538],[-84.4173971,33.7827538]]]],"type":"MultiPolygon"},"type":"Feature"},{"properties":{"rules":[{"ride_allowed":false,"ride_through_allowed":false}]},"geometry":{"coordinates":[[[[-84.41269040503049,33.74385281837637],[-84.41142440237549,33.74346916559203],[-84.41023353715185,33.7434869055111],[-84.40755124907253,33.74591384611345],[-84.405070183939,33.74872443472631],[-84.40806627668881,33.74900915539186],[-84.41105960613655,33.74905363942913],[-84.41387049002617,33.749027022706855],[-84.41713329354673,33.7489001861135],[-84.4171642506029,33.74682359905887],[-84.41582320539378,33.74679673312377],[-84.41496486688327,33.74680563701833],[-84.41436428135079,33.74655540209313],[-84.41377417560139,33.74448707107206],[-84.41269040503049,33.74385281837637]]]],"type":"MultiPolygon"},"type":"Feature"},{"properties":{"rules":[{"ride_allowed":false,"ride_through_allowed":false}]},"geometry":{"coordinates":[[[[-84.40224051109567,33.754147377805445],[-84.40169340266964,33.75415627407609],[-84.4012427732572,33.754147389804736],[-84.40094235120917,33.75412959726069],[-84.4005775463185,33.75416529900646],[-84.40035226888547,33.75431691075878],[-84.40001966032929,33.754530948543376],[-84.39956904555517,33.75474502179125],[-84.39917206764223,33.7547539899951],[-84.39878583320369,33.754816311426325],[-84.39859275806965,33.75530711301264],[-84.3979276214682,33.755922709076216],[-84.39765937860916,33.75612770279861],[-84.39747698107699,33.756207959335676],[-84.39744479456881,33.75669858496997],[-84.39741260440104,33.75812549779543],[-84.39686547401746,33.75812549779543],[-84.39624308807878,33.75814332550633],[-84.39581398587063,33.758277111211676],[-84.39542779900671,33.75852692636058],[-84.39465518008649,33.759106964279184],[-84.39486982999944,33.759472613405016],[-84.39536334181982,33.76033791743682],[-84.39550279994761,33.760534140306774],[-84.39582466618185,33.7608641667263],[-84.3961894477603,33.761301224579874],[-84.39653276878552,33.76177395728383],[-84.39707460032032,33.76254549032881],[-84.39724087254172,33.76307618923556],[-84.39733743149002,33.76335268918026],[-84.39747154163739,33.76335279983012],[-84.39771829571781,33.76334399449887],[-84.3977343871421,33.7633528958141],[-84.39815279528028,33.76333549511572],[-84.3985494145536,33.7633352911497],[-84.39936498541394,33.76332189418123],[-84.40002496070453,33.76332183419122],[-84.40067951119384,33.76332179819721],[-84.40159688706015,33.76330834123661],[-84.40196168212454,33.763294884273904],[-84.4020045279366,33.76329037062385],[-84.4020419855433,33.76328585697356],[-84.40223502408145,33.763254657349236],[-84.40229406378626,33.76297815792106],[-84.40229943003409,33.76290665910838],[-84.40231553609674,33.76262575285537],[-84.40231553609674,33.762148738271605],[-84.40234240759132,33.76207723876702],[-84.40232090600416,33.761912270877986],[-84.40234237099544,33.76177835886582],[-84.40234236733585,33.76161776016101],[-84.4023531034911,33.761613066448994],[-84.40235310715069,33.76129216807617],[-84.40236920223458,33.76101128052845],[-84.40239066722586,33.76078832734686],[-84.40239066722586,33.76067674255325],[-84.4024014363174,33.760578866971784],[-84.40241212855756,33.76043572130298],[-84.40246578737622,33.76009682324308],[-84.40244431872536,33.75986490001467],[-84.40243358622968,33.759543851114614],[-84.40246578005703,33.75915128706823],[-84.40246578005703,33.75866080745648],[-84.40248724504833,33.758268455342844],[-84.4024765125527,33.758009707574644],[-84.40248724504833,33.75774207512657],[-84.40248724138876,33.75699288460966],[-84.40248723772915,33.756546860771344],[-84.40248723772915,33.7561186627444],[-84.40251943155651,33.75547640369069],[-84.40250869540127,33.75481644341746],[-84.40253016039257,33.75453989277116],[-84.40245502926346,33.75425449297034],[-84.40250873199716,33.75421866793747],[-84.40224051109567,33.754147377805445]]]],"type":"MultiPolygon"},"type":"Feature"},{"properties":{"rules":[{"ride_allowed":false,"ride_through_allowed":true}]},"geometry":{"coordinates":[[[[-84.402730846,33.75853578],[-84.395897379,33.758559018],[-84.395904522,33.759857623],[-84.396402559,33.760928154],[-84.397611353,33.762653833],[-84.398067917,33.763884436],[-84.398048408,33.763911647],[-84.397311059,33.764175048],[-84.396098526,33.76467906],[-84.390329923,33.764661718],[-84.389259737,33.764853158],[-84.387141037,33.764843493],[-84.386826153,33.76480728],[-84.385680681,33.764499155],[-84.385608757,33.762846786],[-84.385724498,33.760864651],[-84.385992701,33.758346294],[-84.386044298,33.757143164],[-84.386059889,33.755834477],[-84.386109766,33.755243645],[-84.386104878,33.754887654],[-84.386187137,33.754515041],[-84.386360663,33.754301838],[-84.386632962,33.753782117],[-84.387482044,33.752870995],[-84.389498108,33.754050128],[-84.390521471,33.754485964],[-84.393137941,33.75647001],[-84.393741112,33.754640053],[-84.394630757,33.753464806],[-84.395651017,33.752246793],[-84.398933616,33.753777755],[-84.402672209,33.75390373],[-84.402691444,33.753928021],[-84.402763161,33.75850845],[-84.402730846,33.75853578],[-84.402730846,33.75853578]]]],"type":"MultiPolygon"},"type":"Feature"},{"properties":{"rules":[{"ride_allowed":false,"ride_through_allowed":true}]},"geometry":{"coordinates":[[[[-84.391954635,33.794751275],[-84.375031376,33.790950177],[-84.386008625,33.763577285],[-84.392046112,33.770573412],[-84.391222818,33.794523214],[-84.391954635,33.794751275],[-84.391954635,33.794751275]]]],"type":"MultiPolygon"},"type":"Feature"},{"properties":{"rules":[{"ride_allowed":true,"ride_through_allowed":true}]},"geometry":{"coordinates":[[[[-84.54513511499994,33.70560382700006],[-84.54555838699997,33.68075842400003],[-84.53549485599996,33.68062131700003],[-84.53564903199998,33.67322486400008],[-84.52586108799994,33.67311178000006],[-84.52579684499995,33.66408625100007],[-84.52858239699998,33.66262210000008],[-84.52867788999998,33.65914097600006],[-84.52162695499999,33.65579612300007],[-84.51632383899994,33.65619423900006],[-84.50649001799997,33.65406486100005],[-84.50648020999995,33.66627150300008],[-84.49212139899998,33.66611536000005],[-84.49189949399994,33.67396193600007],[-84.48657031499994,33.67439530100006],[-84.48634134799994,33.69068697000006],[-84.48243827699997,33.69322575800004],[-84.47708125699995,33.69311840800003],[-84.47698800299997,33.69804457000004],[-84.46128112799994,33.69774086400002],[-84.45625198499994,33.69939621900005],[-84.44968550599998,33.69805585200004],[-84.44969735899997,33.70568089500006],[-84.44306564699997,33.70565159500006],[-84.44312553799995,33.70099520900004],[-84.43784339799998,33.69974374100008],[-84.42930195499997,33.69971375700004],[-84.42961867699995,33.69742102400005],[-84.41531390599994,33.69724245800006],[-84.41684704699998,33.69218322600005],[-84.41689462999994,33.68137415200005],[-84.41809033099997,33.67316157700003],[-84.39821466899997,33.67293554600008],[-84.39821092399995,33.66908485900007],[-84.39523388499998,33.66009456200004],[-84.39588632299996,33.65484961100003],[-84.39935939299994,33.65371426300004],[-84.39929466199999,33.64828147000003],[-84.35022638199996,33.64799136300007],[-84.34973518999999,33.67601400000007],[-84.34950698199998,33.71539707600004],[-84.34869260499994,33.72218057000003],[-84.34859150399996,33.73247291400003],[-84.34008482299998,33.73240352500005],[-84.33486223399996,33.72871173200008],[-84.33190301099995,33.72070965800003],[-84.32113646699997,33.72641484800005],[-84.32936945499995,33.73068650000005],[-84.32930560799997,33.73329234600004],[-84.32576660999996,33.73662321500007],[-84.32871251299997,33.74496407500004],[-84.32861843599994,33.74749137300006],[-84.32230939899995,33.74738784300007],[-84.31967843099994,33.74471786300006],[-84.32300152899995,33.73973475700006],[-84.30603038899994,33.73934979200004],[-84.30550445199998,33.73753973100003],[-84.29682893599994,33.73705650100004],[-84.29538148899996,33.73944639800004],[-84.29030226899994,33.73888914500003],[-84.29064613499997,33.75314160200003],[-84.30248487799997,33.75478343100008],[-84.30465114399999,33.75236117500003],[-84.31119837099999,33.75235367700003],[-84.31246501399994,33.75535469300007],[-84.31241774999995,33.76487973300004],[-84.31614054899995,33.76428309900007],[-84.32297730299996,33.76963776000008],[-84.32678603699998,33.76967982200006],[-84.33001138599997,33.77229178200002],[-84.33007823999998,33.77924177700004],[-84.34520414999997,33.77931707900007],[-84.34888290599997,33.78297142500003],[-84.34880648999996,33.78984475700003],[-84.34531562199999,33.79208294700004],[-84.34510002699994,33.79597666100005],[-84.34185130299994,33.79611222100004],[-84.33623026499998,33.80116813800004],[-84.33073555999994,33.79606729100004],[-84.33066822099994,33.79371118300003],[-84.32634013099994,33.78872845800004],[-84.31957525799999,33.78943979900004],[-84.31665799099994,33.79530031100006],[-84.30986488599996,33.79501309400007],[-84.30664997799994,33.79795048400007],[-84.30925091299997,33.80078201700007],[-84.31805735899997,33.80513974700006],[-84.33334141999995,33.80707836700003],[-84.33789538199994,33.80456205600007],[-84.34866073799998,33.80463036900005],[-84.34856724799994,33.82852013700006],[-84.34812933899997,33.84429399300006],[-84.34808643399998,33.88202518100007],[-84.35390037799993,33.88196530000005],[-84.35551948099999,33.87841765600007],[-84.36206716599997,33.87693647500004],[-84.36409828099994,33.88009125900004],[-84.36777326499998,33.87805467200008],[-84.39733031599997,33.87825030100004],[-84.40511972599995,33.88517534600004],[-84.40720274599994,33.87830425400006],[-84.43617516599994,33.87848167000004],[-84.43949582299996,33.87985017700004],[-84.44747552099994,33.87599809800003],[-84.45123463199997,33.87242078100007],[-84.45204707699997,33.86921579100004],[-84.45617977099994,33.86449437300007],[-84.45419873099996,33.85973192000006],[-84.46017695599994,33.85158968800005],[-84.45878375699994,33.84604668900005],[-84.46042974499994,33.83835236200008],[-84.45502425399997,33.82799488100005],[-84.45919205899997,33.82475475800004],[-84.46629733799995,33.82764427800004],[-84.47071914599996,33.82654550600006],[-84.48562013799994,33.81386952600008],[-84.49151008299998,33.81208636500003],[-84.50051654799995,33.80321443900004],[-84.50260067999994,33.79975941900005],[-84.50956831499997,33.79383084600005],[-84.51509232499996,33.79058900100006],[-84.51545389199998,33.78323993000004],[-84.50736652399996,33.78336282100003],[-84.51197844599994,33.77805451100005],[-84.51517216999997,33.77263666200002],[-84.51530843599994,33.76248706700005],[-84.52478530699995,33.76259253800004],[-84.52489668199996,33.75772681000007],[-84.53502865399997,33.75784024200004],[-84.53496795799998,33.75126496800004],[-84.54035010999996,33.74824046200007],[-84.53533165999994,33.74445782500004],[-84.53556534599994,33.73852917000005],[-84.52541137299994,33.73769903500005],[-84.52580308999995,33.73338373300004],[-84.52372666199994,33.73005683600007],[-84.51758849099997,33.73138295100006],[-84.51406015199996,33.72842790500005],[-84.50876242799995,33.73250369200008],[-84.50846905799995,33.73958008700004],[-84.50566584999996,33.73929129100003],[-84.50579321899994,33.73158276400005],[-84.50213811999998,33.73155261800002],[-84.50251387299994,33.72620379500006],[-84.50573612199997,33.72292670100006],[-84.50604756499996,33.71301075800005],[-84.51627903599996,33.71385824800007],[-84.51469870899996,33.71734892300003],[-84.50830055999995,33.71703247300007],[-84.50795942799994,33.71934050700003],[-84.51373471899996,33.71986451100003],[-84.51398626399998,33.72206836100003],[-84.52287214299997,33.72212603000003],[-84.52417211499994,33.72577709000007],[-84.52721407999996,33.72612110200004],[-84.52685683799996,33.73214187400004],[-84.53577361299995,33.73465473100003],[-84.54105233699994,33.73334427300006],[-84.54000361999994,33.72833931900004],[-84.55083606499994,33.72836607000005],[-84.55059945699998,33.72023359500002],[-84.54343730799997,33.72022455100006],[-84.53616910099998,33.72447018300005],[-84.53514105399995,33.71216400400004],[-84.53619754699997,33.70893176200008],[-84.54545612099997,33.70928506600006],[-84.54513511499994,33.70560382700006],[-84.54513511499994,33.70560382700006]]]],"type":"MultiPolygon"},"type":"Feature"}]}