{"type":"FeatureCollection","_source":{"url":"https://gbfs.lyft.com/gbfs/2.3/den/en/station_information.json","system_id":"lyft_den","operator":"Lyft","gbfs_version":"2.3","feed_last_updated":1734371827,"retrieved_at":"2026-08-04T17:25:21Z","note":"119 Lyft-branded Denver dock locations with address and capacity. The lyft_den feed is ABANDONED, not merely stale -- it returns a byte-identical payload on every request, and its last_updated (2024-12-16T17:57:06Z) is a freeze stamp that post-dates Lyft's actual Denver operations by an unknown margin. The dock locations themselves are real and geocodable, but this file carries NO reliable date. Do not cite it as a snapshot of any particular moment.","feed_last_updated_note":"freeze stamp, not a data date -- see note"},"features":[{"type":"Feature","geometry":{"type":"Point","coordinates":[-104.9929222,39.7418668]},"properties":{"capacity":16,"address":"1350 Glenarm Pl, Denver, CO 80204, United States","station_id":"1795242324168030636","name":"Glenarm Pl at 14th St"}},{"type":"Feature","geometry":{"type":"Point","coordinates":[-105.0023092,39.7508683]},"properties":{"capacity":16,"address":"Steel Bridge Lofts, 1449, Wynkoop Street, Lower Downtown, Denver, Colorado, 80202, United States","station_id":"1751033738041549816","name":"Wynkoop St at 15th St"}},{"type":"Feature","geometry":{"type":"Point","coordinates":[-105.0043619,39.748321]},"properties":{"capacity":16,"address":"1221 Auraria Pkwy, Denver, CO 80204, United States","station_id":"1833146137760487440","name":"12th St at Auraria Pkwy"}},{"type":"Feature","geometry":{"type":"Point","coordinates":[-104.9958241,39.7465564]},"properties":{"capacity":16,"address":"1500, Curtis Street, Central Business District, Denver, Colorado, 80202, United States","station_id":"1675806320458381748","name":"15th St at Curtis St"}},{"type":"Feature","geometry":{"type":"Point","coordinates":[-104.995105,39.7496126]},"properties":{"capacity":16,"address":"1125 17th St, Denver, CO 80202, United States","station_id":"1843098656021065950","name":"Lawrence St at 17th St "}},{"type":"Feature","geometry":{"type":"Point","coordinates":[-104.990039,39.732099]},"properties":{"capacity":16,"address":"1000 Bannock St, Denver, CO 80204, United States","station_id":"1880935957681617118","name":"W 10th Ave & Bannock St"}},{"type":"Feature","geometry":{"type":"Point","coordinates":[-104.989494,39.753961]},"properties":{"capacity":16,"address":"2154 Lawrence St, Denver, CO 80205, United States","station_id":"1916586995192926336","name":"Lawrence St & 22nd St"}},{"type":"Feature","geometry":{"type":"Point","coordinates":[-104.9742307,39.7592646]},"properties":{"capacity":16,"address":"709, 31st Street, Five Points, Denver, Colorado, 80205, United States","station_id":"1734395923126643366","name":"31st St at California St"}},{"type":"Feature","geometry":{"type":"Point","coordinates":[-104.9878646,39.7353177]},"properties":{"capacity":16,"address":"1201 N Broadway, Denver, CO 80203, United States","station_id":"1789646552142737540","name":"W 12 Ave at Broadway"}},{"type":"Feature","geometry":{"type":"Point","coordinates":[-104.990856,39.753335]},"properties":{"capacity":16,"address":"1222, 21st Street, Five Points, Denver, Denver County, Colorado, 80205, United States","station_id":"1602305529442096952","name":"21st St at Lawrence St"}},{"type":"Feature","geometry":{"type":"Point","coordinates":[-104.996916666667,39.7509166666667]},"properties":{"capacity":16,"address":"1401 17th St, Denver, CO 80202, United States","station_id":"1944893337295245728","name":"Market St at 17th St"}},{"type":"Feature","geometry":{"type":"Point","coordinates":[-104.9696043,39.7398565]},"properties":{"capacity":16,"address":"Hamilton Condos, 1475, Humboldt Street, Cheesman Park, Denver, Colorado, 80218, United States","station_id":"1751100663328850426","name":"Humboldt St at E Colfax Ave"}},{"type":"Feature","geometry":{"type":"Point","coordinates":[-105.03155,39.74411]},"properties":{"capacity":16,"address":"3408 W 17th Ave, Denver, CO 80204, United States","station_id":"1963703667031949322","name":"Julian St at 17th Ave"}},{"type":"Feature","geometry":{"type":"Point","coordinates":[-104.9837465,39.7479403]},"properties":{"capacity":16,"address":"407, 21st Street, Five Points, Denver, Colorado, 80205, United States","station_id":"1749637395497741056","name":"21st St at Tremont Pl"}},{"type":"Feature","geometry":{"type":"Point","coordinates":[-104.991756,39.74864489]},"properties":{"capacity":16,"address":"910 18th St, Denver, CO 80202, United States","station_id":"1807900075730721682","name":"18th St at Champa St"}},{"type":"Feature","geometry":{"type":"Point","coordinates":[-104.9914745,39.7353033]},"properties":{"capacity":16,"address":"290 W 12th Ave, Denver, CO 80204, United States","station_id":"1776812678791742290","name":"W 12th Ave at Cherokee St"}},{"type":"Feature","geometry":{"type":"Point","coordinates":[-104.99201,39.75642]},"properties":{"capacity":16,"address":"2209 Blake St, Denver, CO 80205, United States","station_id":"1800116816700827990","name":"Blake St at 22nd"}},{"type":"Feature","geometry":{"type":"Point","coordinates":[-105.0004828,39.7477903]},"properties":{"capacity":16,"address":"1414 Larimer St, Denver, CO 80202, United States","station_id":"1877218414847330844","name":"14th St at Market St"}},{"type":"Feature","geometry":{"type":"Point","coordinates":[-104.983255,39.753268]},"properties":{"capacity":16,"address":"790 24th St, Denver, CO 80205, United States","station_id":"1877218043035902694","name":"24th St at Stout St"}},{"type":"Feature","geometry":{"type":"Point","coordinates":[-104.9759737,39.7645408]},"properties":{"capacity":16,"address":"3301, Lawrence Street, Five Points, Denver, Colorado, 80205, United States","station_id":"1757831483608957912","name":"Lawrence St at 33rd St"}},{"type":"Feature","geometry":{"type":"Point","coordinates":[-104.97793,39.754741]},"properties":{"capacity":16,"address":"27th Street, Five Points, Denver, Colorado, 80205, United States","station_id":"1749932062176305762","name":"27th St at Welton St"}},{"type":"Feature","geometry":{"type":"Point","coordinates":[-104.9794034,39.7539262]},"properties":{"capacity":16,"address":"605, 26th Street, Five Points, Denver, Colorado, 80205, United States","station_id":"1732922674616686718","name":"26th St at Welton St"}},{"type":"Feature","geometry":{"type":"Point","coordinates":[-104.9832527,39.7353179]},"properties":{"capacity":16,"address":"Modera Capitol Hill, 1200, Grant Street, Capitol Hill, Denver, Colorado, 80203, United States","station_id":"1738168064643033464","name":"E 12th Ave at Grant St"}},{"type":"Feature","geometry":{"type":"Point","coordinates":[-104.9804304,39.7501737]},"properties":{"capacity":16,"address":"2337, Tremont Place, Five Points, Denver, Colorado, 80205, United States","station_id":"1754825768375845782","name":"Tremont Pl at Park Ave W"}},{"type":"Feature","geometry":{"type":"Point","coordinates":[-104.988601,39.751788]},"properties":{"capacity":16,"address":"2100 Curtis St, Denver, CO 80205, United States","station_id":"2007493273727904574","name":"21st St at Curtis St "}},{"type":"Feature","geometry":{"type":"Point","coordinates":[-104.97614,39.743422]},"properties":{"capacity":16,"address":"837 E 17th Ave, Denver, CO 80218, United States","station_id":"1958127426050134356","name":"Emerson St at E 17th Ave"}},{"type":"Feature","geometry":{"type":"Point","coordinates":[-104.9971826,39.7494994]},"properties":{"capacity":16,"address":"1475 16th St, Denver, CO 80202, United States","station_id":"1829027715625915104","name":"Larimer St at 16th St"}},{"type":"Feature","geometry":{"type":"Point","coordinates":[-104.960978,39.744556]},"properties":{"capacity":16,"address":"1795 Gaylord St, Denver, CO 80206, United States","station_id":"1999702643595552860","name":"N Gaylord St at E 18th Ave"}},{"type":"Feature","geometry":{"type":"Point","coordinates":[-105.002815,39.77662]},"properties":{"capacity":16,"address":"4402 Mariposa Way, Denver, CO 80211, United States","station_id":"2017515052586867490","name":"W 44th Ave at Mariposa Way"}},{"type":"Feature","geometry":{"type":"Point","coordinates":[-104.9461462,39.7352929]},"properties":{"capacity":16,"address":"1200 Madison St, Denver, CO 80206, United States","station_id":"1986351704052543586","name":"Madison St at 12th Ave"}},{"type":"Feature","geometry":{"type":"Point","coordinates":[-104.9971026,39.75459034]},"properties":{"capacity":16,"address":"1677 19th St, Denver, CO 80202, United States","station_id":"1807113748892979606","name":"19th St at Wynkoop St"}},{"type":"Feature","geometry":{"type":"Point","coordinates":[-105.0077941,39.7572151]},"properties":{"capacity":16,"address":"National Velvet, 16th Street, Highland, Denver, Colorado, 80217, United States","station_id":"1666800242971771362","name":"16th St at Platte St"}},{"type":"Feature","geometry":{"type":"Point","coordinates":[-105.0035237,39.7526474]},"properties":{"capacity":16,"address":"DaVita Parking Garage, 2000, 16th Street Mall, Denver, Colorado, 80202, United States","station_id":"1656029080048740552","name":"Delgany St at 15th St"}},{"type":"Feature","geometry":{"type":"Point","coordinates":[-104.9812028,39.76438843]},"properties":{"capacity":16,"address":"3040 Blake Street Suite 131, Denver, CO 80205, United States","station_id":"1880937525820748568","name":"Blake St at 31st St"}},{"type":"Feature","geometry":{"type":"Point","coordinates":[-104.972203,39.7401668]},"properties":{"capacity":16,"address":"1509, Marion Street, City Park West, Denver, Colorado, 80218, United States","station_id":"1732924583830405218","name":"N Marion St at Colfax Ave"}},{"type":"Feature","geometry":{"type":"Point","coordinates":[-104.99226,39.74373]},"properties":{"capacity":16,"address":"Sage Hospitality, 1575, Welton Street, Central Business District, Denver, Colorado, 80202, United States","station_id":"1732923742016815206","name":"Welton St at 15th St"}},{"type":"Feature","geometry":{"type":"Point","coordinates":[-105.0156723,39.7596819]},"properties":{"capacity":16,"address":"2323, West 30th Avenue, Highland, Denver, Colorado, 80211, United States","station_id":"1753730839683391724","name":"W 30th Ave at Zuni St"}},{"type":"Feature","geometry":{"type":"Point","coordinates":[-104.9900552,39.7414257]},"properties":{"capacity":16,"address":"1439, Court Place, Central Business District, Denver, Colorado, 80202, United States","station_id":"1736186663469890504","name":"Court Pl at 15th St"}},{"type":"Feature","geometry":{"type":"Point","coordinates":[-104.973741,39.770378]},"properties":{"capacity":16,"address":"3735 Blake St, Denver, CO 80205, United States","station_id":"1935262093580914984","name":"38th St at Blake St"}},{"type":"Feature","geometry":{"type":"Point","coordinates":[-105.0110208,39.760678]},"properties":{"capacity":16,"address":"Erie Street, Highland, Denver, Colorado, 80211, United States","station_id":"1757830812693631036","name":"Erie St at Tejon St"}},{"type":"Feature","geometry":{"type":"Point","coordinates":[-105.0016052,39.7499163]},"properties":{"capacity":16,"address":"Elephant Corral Building, 1420, Wazee Street, Lower Downtown, Denver, Colorado, 80202, United States","station_id":"1666800247266738662","name":"Wazee Street & 15th Street"}},{"type":"Feature","geometry":{"type":"Point","coordinates":[-105.015749,39.758575]},"properties":{"capacity":16,"address":"2900, Zuni Street, Highland, Denver, Colorado, 80211, United States","station_id":"1749637786976606352","name":"W 29th Ave at Zuni St"}},{"type":"Feature","geometry":{"type":"Point","coordinates":[-104.9936239,39.75194111]},"properties":{"capacity":16,"address":"1907 Larimer St, Denver, CO 80202, United States","station_id":"1812614465245790784","name":"19th St at Larimer St"}},{"type":"Feature","geometry":{"type":"Point","coordinates":[-104.977626,39.756525]},"properties":{"capacity":16,"address":"625 28th St, Denver, CO 80205, United States","station_id":"1892854384456567680","name":"California St at 28th St"}},{"type":"Feature","geometry":{"type":"Point","coordinates":[-104.9854662,39.7569027]},"properties":{"capacity":16,"address":"2500, Lawrence Street, Five Points, Denver, Colorado, 80294, United States","station_id":"1760376390774221540","name":"25th St at Lawrence St"}},{"type":"Feature","geometry":{"type":"Point","coordinates":[-104.9899082,39.7455193]},"properties":{"capacity":16,"address":"555, 17th Street, Central Business District, Denver, Colorado, 80202, United States","station_id":"1753727737377155858","name":"Welton St at 17th St"}},{"type":"Feature","geometry":{"type":"Point","coordinates":[-104.9817286,39.7613886]},"properties":{"capacity":16,"address":"2927 Larimer St, Denver, CO 80205, United States","station_id":"1779316556483330154","name":"29th St at Larimer St"}},{"type":"Feature","geometry":{"type":"Point","coordinates":[-104.9722068,39.745635]},"properties":{"capacity":16,"address":"1856 N Marion St, Denver, CO 80218, United States","station_id":"1986353871757937460","name":"N Marion St at E 19th Ave"}},{"type":"Feature","geometry":{"type":"Point","coordinates":[-104.9867745,39.7643291]},"properties":{"capacity":16,"address":"1802 W 29th St, Denver, CO 80216, United States","station_id":"1797574762207008916","name":"Brighton Blvd at 29th St"}},{"type":"Feature","geometry":{"type":"Point","coordinates":[-104.9974017,39.75296271]},"properties":{"capacity":16,"address":"1578 18th St, Denver, CO 80202, United States","station_id":"1812614210297193140","name":"18th St at Wazee St"}},{"type":"Feature","geometry":{"type":"Point","coordinates":[-104.9956133,39.7384434]},"properties":{"capacity":16,"address":"West 14th Avenue & Galapago Street, West 14th Avenue, Golden Triangle, Denver, Colorado, 80293, United States","station_id":"1754825615368931928","name":"W 14th Ave at Fox St"}},{"type":"Feature","geometry":{"type":"Point","coordinates":[-104.9939508,39.7504992]},"properties":{"capacity":16,"address":"1800 Lawrence St, Denver, CO 80202, United States","station_id":"1792273298363317016","name":"Lawrence St at 18th St"}},{"type":"Feature","geometry":{"type":"Point","coordinates":[-104.990566,39.757257]},"properties":{"capacity":16,"address":"2300 Blake St, Denver, CO 80205, United States","station_id":"1965552196969617976","name":"Blake St at Park Ave W"}},{"type":"Feature","geometry":{"type":"Point","coordinates":[-104.9967043,39.7370256]},"properties":{"capacity":16,"address":"1323 Speer Blvd, Denver, CO 80204, United States","station_id":"1862074514751080858","name":"Speer Blvd at W 13th Ave"}},{"type":"Feature","geometry":{"type":"Point","coordinates":[-104.992172,39.750844]},"properties":{"capacity":16,"address":"1929 Arapahoe St, Denver, CO 80202, United States","station_id":"1991841504262379540","name":"19th St at Arapahoe St"}},{"type":"Feature","geometry":{"type":"Point","coordinates":[-104.9983586,39.7537028]},"properties":{"capacity":16,"address":"1691 18th St, Denver, CO 80202, United States","station_id":"1807101524754111232","name":"18th St at Wynkoop St"}},{"type":"Feature","geometry":{"type":"Point","coordinates":[-105.0019309,39.7550581]},"properties":{"capacity":16,"address":"2025 17th St, Denver, CO 80202, United States","station_id":"1833147038503123324","name":"Chestnut Pl at 17th St"}},{"type":"Feature","geometry":{"type":"Point","coordinates":[-104.964719,39.746803]},"properties":{"capacity":16,"address":"1947 N High St, Denver, CO 80218, United States","station_id":"1983370038943134206","name":"High St at E 20th Ave"}},{"type":"Feature","geometry":{"type":"Point","coordinates":[-105.0104252,39.7594322]},"properties":{"capacity":16,"address":"1636, Boulder Street, Highland, Denver, Colorado, 80211, United States","station_id":"1675806320458381750","name":"Boulder Street & 16th Street"}},{"type":"Feature","geometry":{"type":"Point","coordinates":[-104.98367,39.74641]},"properties":{"capacity":16,"address":"Sova, 1901, Grant Street, North Capitol Hill, Denver, Colorado, 80203, United States","station_id":"1753729243407270758","name":"Grant St at E 19th Ave"}},{"type":"Feature","geometry":{"type":"Point","coordinates":[-105.0083207,39.7591683]},"properties":{"capacity":16,"address":"1691 Central St, Denver, CO 80211, United States","station_id":"2007796732987017918","name":"Central St at 17th St "}},{"type":"Feature","geometry":{"type":"Point","coordinates":[-104.978096,39.751842]},"properties":{"capacity":16,"address":"706 E 24th Ave, Denver, CO 80205, United States","station_id":"1862791868785099614","name":"N Washington St at E 24th Ave"}},{"type":"Feature","geometry":{"type":"Point","coordinates":[-104.9795555,39.7631337]},"properties":{"capacity":16,"address":"3047 Larimer St, Denver, CO 80205, United States","station_id":"1844258234160048452","name":"Larimer St at 31st St"}},{"type":"Feature","geometry":{"type":"Point","coordinates":[-104.983972,39.761278]},"properties":{"capacity":16,"address":"2801 Walnut St, Denver, CO 80205, United States","station_id":"1963704478602088930","name":"Walnut St at 28th St"}},{"type":"Feature","geometry":{"type":"Point","coordinates":[-104.995581305556,39.7453441111111]},"properties":{"capacity":16,"address":"891 14th St, Denver, CO 80202, United States","station_id":"1960379215227738460","name":"Champa St at 15th St"}},{"type":"Feature","geometry":{"type":"Point","coordinates":[-105.0007928,39.7520686]},"properties":{"capacity":16,"address":"One Union Station, 1615, Wynkoop Street, 16th Street Mall, Denver, Colorado, 80202, United States","station_id":"1725143612226063110","name":"Wynkoop St at 16th St"}},{"type":"Feature","geometry":{"type":"Point","coordinates":[-104.967003,39.753183]},"properties":{"capacity":16,"address":"1704 E 25th Ave, Denver, CO 80205, United States","station_id":"1999703614617189162","name":"E 25th at Gilpin St "}},{"type":"Feature","geometry":{"type":"Point","coordinates":[-104.9794495,39.77084302]},"properties":{"capacity":16,"address":"1881 35th St, Denver, CO 80216, United States","station_id":"1864604761039167838","name":"35th St at Delgany St"}},{"type":"Feature","geometry":{"type":"Point","coordinates":[-105.0207325,39.7619305]},"properties":{"capacity":16,"address":"2644 W 32nd Ave, Denver, CO 80211, United States","station_id":"1880938176516047606","name":"W 32nd Ave at Clay St"}},{"type":"Feature","geometry":{"type":"Point","coordinates":[-104.9930748,39.7496545]},"properties":{"capacity":16,"address":"1093 18th St, Denver, CO 80202, United States","station_id":"1812615019296571492","name":"18th St at Arapahoe St"}},{"type":"Feature","geometry":{"type":"Point","coordinates":[-104.981148,39.746396]},"properties":{"capacity":16,"address":"Uptown Square, 1955, Pennsylvania Street, North Capitol Hill, Denver, Colorado, 80203, United States","station_id":"1753728165691748864","name":"Pennsylvania St at E 19th St"}},{"type":"Feature","geometry":{"type":"Point","coordinates":[-104.98675,39.7548333055556]},"properties":{"capacity":16,"address":"2314 N Broadway, Denver, CO 80205, United States","station_id":"1962941418498554508","name":"Arapahoe St at Broadway "}},{"type":"Feature","geometry":{"type":"Point","coordinates":[-104.974325,39.757439]},"properties":{"capacity":16,"address":"2962 Welton St, Denver, CO 80205, United States","station_id":"1986352779963548210","name":"30th St at Welton St "}},{"type":"Feature","geometry":{"type":"Point","coordinates":[-104.982165,39.73041204]},"properties":{"capacity":16,"address":"445 E 9th Ave, Denver, CO 80203, United States","station_id":"1892853704949177096","name":"E 9th Ave at Logan St"}},{"type":"Feature","geometry":{"type":"Point","coordinates":[-105.0381406,39.7438044]},"properties":{"capacity":16,"address":"1655 Osceola St, Denver, CO 80204, United States","station_id":"1955586621327850120","name":"Osceola St at 17th Ave"}},{"type":"Feature","geometry":{"type":"Point","coordinates":[-105.0157741,39.7400394]},"properties":{"capacity":16,"address":"2027 W Colfax Ave, Denver, CO 80204, United States","station_id":"1968158719157533390","name":"Old West Colfax Ave at Zuni St "}},{"type":"Feature","geometry":{"type":"Point","coordinates":[-104.9860453,39.7512447]},"properties":{"capacity":16,"address":"Renaissance Stout Street Lofts, 2180, Stout Street, Five Points, Denver, Colorado, 80205, United States","station_id":"1754824681079960556","name":"Stout St at 22nd St"}},{"type":"Feature","geometry":{"type":"Point","coordinates":[-104.992955,39.747395]},"properties":{"capacity":16,"address":"1690 Champa St, Denver, CO 80202, United States","station_id":"1829027261868901166","name":"Champa St at 17th St"}},{"type":"Feature","geometry":{"type":"Point","coordinates":[-104.986402,39.757547]},"properties":{"capacity":16,"address":"Ramble Hotel, 1280, 25th Street, Five Points, Denver, Colorado, 80205, United States","station_id":"1749637951882008770","name":"25th St at Larimer St"}},{"type":"Feature","geometry":{"type":"Point","coordinates":[-104.9982378,39.7584767]},"properties":{"capacity":6,"address":"2907 Inca St, Denver, CO 80202, United States","station_id":"1776813434425353044","name":"W 29th Ave at Inca St"}},{"type":"Feature","geometry":{"type":"Point","coordinates":[-104.989577,39.746788]},"properties":{"capacity":16,"address":"633 18th St, Denver, CO 80202, United States","station_id":"2014543058748785302","name":"18th St at California St"}},{"type":"Feature","geometry":{"type":"Point","coordinates":[-104.976277805556,39.7626666944444]},"properties":{"capacity":16,"address":"3204 Arapahoe St, Denver, CO 80205, United States","station_id":"1942876237230856650","name":"32nd St at Arapahoe St"}},{"type":"Feature","geometry":{"type":"Point","coordinates":[-104.98513,39.7491124]},"properties":{"capacity":16,"address":"597, 21st Street, Five Points, Denver, Colorado, 80205, United States","station_id":"1732919599772275316","name":"21st St at Welton St"}},{"type":"Feature","geometry":{"type":"Point","coordinates":[-104.9821118,39.7337557]},"properties":{"capacity":16,"address":"Canterbury Tales Condos, 1100, Logan Street, Capitol Hill, Denver, Colorado, 80203, United States","station_id":"1755957393940656370","name":"E 11th Ave at Logan St"}},{"type":"Feature","geometry":{"type":"Point","coordinates":[-104.9835284,39.762586]},"properties":{"capacity":16,"address":"Modera River North, 2840, Blake Street, Five Points, Denver, Colorado, 80205, United States","station_id":"1736186183897860098","name":"Blake St at 29th St"}},{"type":"Feature","geometry":{"type":"Point","coordinates":[-104.981111111111,39.7592222222222]},"properties":{"capacity":16,"address":"1131 28th St, Denver, CO 80205, United States","station_id":"1944890320204935842","name":"Arapahoe St at 28th St"}},{"type":"Feature","geometry":{"type":"Point","coordinates":[-104.9417024,39.73514633]},"properties":{"capacity":16,"address":"3929 E 12th Ave, Denver, CO 80206, United States","station_id":"1865028804421389058","name":"12th Ave at Harrison St"}},{"type":"Feature","geometry":{"type":"Point","coordinates":[-104.983088,39.758916]},"properties":{"capacity":16,"address":"2701 Lawrence St, Denver, CO 80205, United States","station_id":"1978566805989112194","name":"27th St at Lawrence St"}},{"type":"Feature","geometry":{"type":"Point","coordinates":[-105.005341,39.732308]},"properties":{"capacity":16,"address":"1000 Osage St, Denver, CO 80204, United States","station_id":"1968159986172885716","name":"Osage St at W 10th Ave "}},{"type":"Feature","geometry":{"type":"Point","coordinates":[-104.979166666667,39.7650277777778]},"properties":{"capacity":16,"address":"3201 Walnut St, Denver, CO 80205, United States","station_id":"1960378184435587158","name":"32nd St at Walnut St"}},{"type":"Feature","geometry":{"type":"Point","coordinates":[-104.98115,39.7683802]},"properties":{"capacity":16,"address":"3310, Brighton Boulevard, Five Points, Denver, Colorado, 80216, United States","station_id":"1755957166307389598","name":"Brighton Blvd at 33rd St"}},{"type":"Feature","geometry":{"type":"Point","coordinates":[-104.9836776,39.733998]},"properties":{"capacity":16,"address":"Dennis Sheedy Mansion, 1115, Grant Street, Capitol Hill, Denver, Colorado, 80203, United States","station_id":"1757830620320530782","name":"Grant St at E 11th Ave"}},{"type":"Feature","geometry":{"type":"Point","coordinates":[-104.9622203,39.7434196]},"properties":{"capacity":16,"address":"1700 Vine St, Denver, CO 80206, United States","station_id":"1960713085914298392","name":"Vine St at E 17th Ave"}},{"type":"Feature","geometry":{"type":"Point","coordinates":[-104.987657,39.7339564]},"properties":{"capacity":16,"address":"54, West 11th Avenue, Golden Triangle, Denver, Colorado, 80204, United States","station_id":"1666800247266738664","name":"11th at Broadway"}},{"type":"Feature","geometry":{"type":"Point","coordinates":[-104.999787,39.752701]},"properties":{"capacity":16,"address":"Streetcar Stables Lofts, 1700, Wynkoop Street, 16th Street Mall, Denver, Denver County, Colorado, 80202, United States","station_id":"1602305533737064252","name":"Wynkoop St at 17th St"}},{"type":"Feature","geometry":{"type":"Point","coordinates":[-104.97626,39.738487]},"properties":{"capacity":16,"address":"833 E 14th Ave, Denver, CO 80218, United States","station_id":"2017514726169352990","name":"E 14th Ave at Emerson St "}},{"type":"Feature","geometry":{"type":"Point","coordinates":[-104.99892,39.75739]},"properties":{"capacity":16,"address":"1950 Chestnut Pl, Denver, CO 80202, United States","station_id":"1968157349583030350","name":"Chestnut Pl at 20th St "}},{"type":"Feature","geometry":{"type":"Point","coordinates":[-104.9794089,39.761738]},"properties":{"capacity":16,"address":"3000 Lawrence St, Denver, CO 80205, United States","station_id":"1843795371575892768","name":"Lawrence St at 30th St"}},{"type":"Feature","geometry":{"type":"Point","coordinates":[-104.986164,39.759344]},"properties":{"capacity":16,"address":"2601, Walnut Street, Five Points, Denver, Denver County, Colorado, 80205, United States","station_id":"1602305529442096954","name":"Walnut St at 26th St"}},{"type":"Feature","geometry":{"type":"Point","coordinates":[-105.001257,39.754198]},"properties":{"capacity":16,"address":"Wewatta Pavilion, 17th Street Gardens, Union Station, Denver, Colorado, 80202, United States","station_id":"1675806324753349048","name":"Wewatta St at 17th St"}},{"type":"Feature","geometry":{"type":"Point","coordinates":[-104.989194444444,39.7556666666667]},"properties":{"capacity":16,"address":"2258 Larimer St, Denver, CO 80205, United States","station_id":"1942873960914176522","name":"Larimer St at Park Ave W"}},{"type":"Feature","geometry":{"type":"Point","coordinates":[-105.001401,39.755626]},"properties":{"capacity":16,"address":"1789 Chestnut Pl, Denver, CO 80202, United States","station_id":"1880934253055668494","name":"Chestnut Pl at 18th St"}},{"type":"Feature","geometry":{"type":"Point","coordinates":[-105.0345399,39.74407156]},"properties":{"capacity":16,"address":"1702 Lowell Blvd, Denver, CO 80204, United States","station_id":"1983732988003619724","name":"Lowell Blvd at 17th St"}},{"type":"Feature","geometry":{"type":"Point","coordinates":[-104.9872752,39.7581242]},"properties":{"capacity":16,"address":"Trade Deficit, 25th Street, Five Points, Denver, Colorado, 80294, United States","station_id":"1725143607931095810","name":"Broadway at Walnut St"}},{"type":"Feature","geometry":{"type":"Point","coordinates":[-105.050944444444,39.7438888888889]},"properties":{"capacity":16,"address":"1695 Yates St, Denver, CO 80204, United States","station_id":"1955583812028815408","name":"Yates St at 17th Ave"}},{"type":"Feature","geometry":{"type":"Point","coordinates":[-104.9779038,39.7641559]},"properties":{"capacity":16,"address":"3200 Larimer St, Denver, CO 80205, United States","station_id":"1844258020795678858","name":"32nd St at Larimer St"}},{"type":"Feature","geometry":{"type":"Point","coordinates":[-105.02445,39.74752]},"properties":{"capacity":16,"address":"2926 W 20th Ave, Denver, CO 80211, United States","station_id":"1983735750800907236","name":"W 20th Ave at N Federal Blvd"}},{"type":"Feature","geometry":{"type":"Point","coordinates":[-104.99078,39.75559]},"properties":{"capacity":16,"address":"2200 Market St, Denver, CO 80205, United States","station_id":"1862075031305914512","name":"Market St at 22nd St"}},{"type":"Feature","geometry":{"type":"Point","coordinates":[-104.987111111111,39.7598333333333]},"properties":{"capacity":16,"address":"2597 Blake St, Denver, CO 80205, United States","station_id":"1890240779861650076","name":"Blake St at 26th St"}},{"type":"Feature","geometry":{"type":"Point","coordinates":[-104.994804,39.750981]},"properties":{"capacity":16,"address":"1323 18th St, Denver, CO 80202, United States","station_id":"1984883452468509500","name":"18th St at Larimer St"}},{"type":"Feature","geometry":{"type":"Point","coordinates":[-104.970967,39.749643]},"properties":{"capacity":16,"address":"2201 N Lafayette St, Denver, CO 80205, United States","station_id":"2001534773573400642","name":"Lafayette St at E 22nd Ave "}},{"type":"Feature","geometry":{"type":"Point","coordinates":[-104.984393,39.759395]},"properties":{"capacity":16,"address":"H.H. Tammen Curio Company Building, 2669, Larimer Street, Five Points, Denver, Colorado, 80205, United States","station_id":"1757831283917959996","name":"Larimer St at 27th St"}},{"type":"Feature","geometry":{"type":"Point","coordinates":[-104.9598468,39.7395608]},"properties":{"capacity":16,"address":"1441 York St, Denver, CO 80206, United States","station_id":"1846849216184019928","name":"York St at E Colfax Ave"}},{"type":"Feature","geometry":{"type":"Point","coordinates":[-104.9743533,39.7668946]},"properties":{"capacity":16,"address":"Link 35, 1220, 35th Street, Five Points, Denver, Colorado, 80205, United States","station_id":"1738167316169392464","name":"35th St at Larimer St"}},{"type":"Feature","geometry":{"type":"Point","coordinates":[-104.9664647,39.6786913]},"properties":{"capacity":16,"address":"1741 E Evans Ave, Denver, CO 80210, United States","station_id":"1960711590027385002","name":"S Williams St at Evans Ave"}},{"type":"Feature","geometry":{"type":"Point","coordinates":[-104.9840931,39.76712326]},"properties":{"capacity":16,"address":"3114 Arkins Ct, Denver, CO 80216, United States","station_id":"1865028349727090944","name":"Atkins Ct at 31st St"}},{"type":"Feature","geometry":{"type":"Point","coordinates":[-105.013178,39.758783]},"properties":{"capacity":16,"address":"2914 Vallejo St, Denver, CO 80211, United States","station_id":"1906519219789656202","name":" Vallejo St at W 29th Ave"}},{"type":"Feature","geometry":{"type":"Point","coordinates":[-104.9591093,39.680309]},"properties":{"capacity":16,"address":"1986 S University Blvd, Denver, CO 80210, United States","station_id":"1844307129374229430","name":"E Asbury Ave at S University Blvd"}},{"type":"Feature","geometry":{"type":"Point","coordinates":[-104.9833903,39.7320882]},"properties":{"capacity":16,"address":"Executive House Apartments, 330, East 10th Avenue, Capitol Hill, Denver, Colorado, 80203, United States","station_id":"1757831026219921896","name":"E 10th Ave at Grant St"}}]}